{
  "type": "FeatureCollection",
  "features": [
    {
      "type": "Feature",
      "geometry": {
        "type": "MultiPolygon",
        "coordinates": [
          [
            [
              [
                53.01953019530197,
                39.052024747434984
              ],
              [
                53.04473044730449,
                38.89752044004817
              ],
              [
                53.09873098730989,
                38.75690416029161
              ],
              [
                53.109531095310956,
                38.803776253543816
              ],
              [
                53.05553055530555,
                39.038136719804726
              ],
              [
                53.091530915309164,
                39.09368883032582
              ],
              [
                53.05193051930519,
                39.09716083723339
              ],
              [
                53.01953019530197,
                39.052024747434984
              ]
            ]
          ],
          [
            [
              [
                39.25,
                38.725
              ],
              [
                39.75,
                38.175
              ],
              [
                39.9,
                37.675
              ],
              [
                39.7,
                37.225
              ],
              [
                39.85,
                36.725
              ],
              [
                40.35,
                36.175
              ],
              [
                40.85,
                35.525
              ],
              [
                41.35,
                34.775
              ],
              [
                41.95,
                33.925
              ],
              [
                42.65,
                32.975
              ],
              [
                43.375,
                32.25
              ],
              [
                44.125,
                31.75
              ],
              [
                44.875,
                31.475
              ],
              [
                45.625,
                31.424999999999997
              ],
              [
                46.4,
                31.174999999999997
              ],
              [
                47.2,
                30.725
              ],
              [
                47.85,
                30.35
              ],
              [
                48.35,
                30.049999999999997
              ],
              [
                48.54172543859068,
                29.96151133603507
              ],
              [
                48.54468544685449,
                29.962310663419146
              ],
              [
                48.59508595085953,
                29.974462687595647
              ],
              [
                48.67068670686709,
                30.028278794662967
              ],
              [
                48.83268832688327,
                30.035222808478096
              ],
              [
                48.868688686886884,
                30.062998863738656
              ],
              [
                48.919089190891924,
                30.120286977713548
              ],
              [
                48.90828908289083,
                30.24180721947846
              ],
              [
                48.89028890288904,
                30.326871388713897
              ],
              [
                48.91548915489156,
                30.398047530319076
              ],
              [
                49.037890378903796,
                30.45012763393261
              ],
              [
                49.001890018900184,
                30.505679744453715
              ],
              [
                49.13149131491315,
                30.509151751361273
              ],
              [
                49.22509225092253,
                30.472695678831798
              ],
              [
                49.246692466924685,
                30.41193555794935
              ],
              [
                49.18909189091892,
                30.375479485419874
              ],
              [
                49.095490954909565,
                30.40672754758799
              ],
              [
                49.04869048690489,
                30.398047530319076
              ],
              [
                49.001890018900184,
                30.373743481966088
              ],
              [
                49.027090270902704,
                30.33381540252904
              ],
              [
                49.05589055890559,
                30.307775350722267
              ],
              [
                49.430294302943025,
                30.13070299843625
              ],
              [
                49.556295562955626,
                30.028278794662967
              ],
              [
                49.98469984699847,
                30.208823153856557
              ],
              [
                50.07110071100712,
                30.19840713313384
              ],
              [
                50.12870128701289,
                30.047374832654597
              ],
              [
                50.168301683016836,
                29.920646580528327
              ],
              [
                50.22950229502297,
                29.87203848382235
              ],
              [
                50.38790387903879,
                29.679342100452274
              ],
              [
                50.54270542705427,
                29.547405837964646
              ],
              [
                50.65070650706508,
                29.420677585838376
              ],
              [
                50.66870668706687,
                29.339085423510497
              ],
              [
                50.64710647106472,
                29.212357171384227
              ],
              [
                50.6759067590676,
                29.14638904014042
              ],
              [
                50.79470794707947,
                29.116876981426074
              ],
              [
                50.87750877508776,
                29.063060874358754
              ],
              [
                50.87750877508776,
                29.00403675693009
              ],
              [
                50.84150841508415,
                28.92765260496357
              ],
              [
                50.86670866708667,
                28.870364490988678
              ],
              [
                51.021510215102154,
                28.78182831484567
              ],
              [
                51.06111061110613,
                28.726276204324563
              ],
              [
                51.09351093510935,
                28.512747779509056
              ],
              [
                51.12951129511296,
                28.434627624088762
              ],
              [
                51.27711277112772,
                28.21936319581947
              ],
              [
                51.27711277112772,
                28.13082701967646
              ],
              [
                51.51831518315183,
                27.910354581045823
              ],
              [
                51.59031590315905,
                27.863482487793647
              ],
              [
                51.66591665916661,
                27.844386449802016
              ],
              [
                51.84231842318425,
                27.847858456709588
              ],
              [
                52.02952029520296,
                27.8235544083566
              ],
              [
                52.19152191521917,
                27.717658197675746
              ],
              [
                52.47592475924759,
                27.616969997356236
              ],
              [
                52.60192601926019,
                27.493713752137538
              ],
              [
                52.6379263792638,
                27.391289548364256
              ],
              [
                52.69192691926921,
                27.32358541366665
              ],
              [
                52.983529835298356,
                27.141305051019273
              ],
              [
                53.339933399334,
                27.004160778170302
              ],
              [
                53.45513455134551,
                26.94340065728784
              ],
              [
                53.50553505535055,
                26.851392474237258
              ],
              [
                53.61513260467565,
                26.783442537973883
              ],
              [
                53.75,
                26.724999999999998
              ],
              [
                53.77260066574464,
                26.715548812506785
              ],
              [
                53.822338223382246,
                26.707304187573143
              ],
              [
                54.07074070740708,
                26.73160823592613
              ],
              [
                54.24714247142472,
                26.696888166850428
              ],
              [
                54.52074520745208,
                26.58925595271579
              ],
              [
                54.64314643146432,
                26.50939979384171
              ],
              [
                54.75834758347585,
                26.505927786934137
              ],
              [
                54.89514895148952,
                26.556271887093885
              ],
              [
                55.154351543515446,
                26.724664222110988
              ],
              [
                55.294752947529474,
                26.78542434299345
              ],
              [
                55.42435424354244,
                26.76980031190938
              ],
              [
                55.51795517955179,
                26.83056043279184
              ],
              [
                55.589955899559016,
                26.932984636565138
              ],
              [
                55.65115651156512,
                26.978120726363528
              ],
              [
                55.9427594275943,
                27.037144843792206
              ],
              [
                56.11916119161194,
                27.14304105447306
              ],
              [
                56.284762847628485,
                27.18991314772525
              ],
              [
                56.35676356763568,
                27.20032916844795
              ],
              [
                56.727567275672754,
                27.127417023389
              ],
              [
                56.81396813968141,
                27.08922494740574
              ],
              [
                56.91116911169112,
                26.993744757447587
              ],
              [
                56.98316983169832,
                26.905208581304578
              ],
              [
                57.03717037170372,
                26.80104837407751
              ],
              [
                57.073170731707336,
                26.679528132312583
              ],
              [
                57.105571055710556,
                26.372255520992724
              ],
              [
                57.20277202772027,
                26.15872709617723
              ],
              [
                57.206372063720636,
                26.037206854412304
              ],
              [
                57.26037260372604,
                25.919158619554963
              ],
              [
                57.3359733597336,
                25.790694363974907
              ],
              [
                57.73197731977319,
                25.724726232731086
              ],
              [
                57.79677796777969,
                25.653550091125922
              ],
              [
                57.79742415217715,
                25.653725866601818
              ],
              [
                58.650000000000006,
                25.925000000000004
              ],
              [
                59.800000000000004,
                26.575000000000003
              ],
              [
                61,
                27.525
              ],
              [
                62.2,
                28.35
              ],
              [
                63.4,
                29.049999999999997
              ],
              [
                64.6,
                29.499999999999996
              ],
              [
                65.80000000000001,
                29.700000000000003
              ],
              [
                66.825,
                30.125
              ],
              [
                67.675,
                30.775000000000002
              ],
              [
                68.475,
                31.6
              ],
              [
                69.225,
                32.6
              ],
              [
                69.89999999999999,
                33.525000000000006
              ],
              [
                70.5,
                34.375
              ],
              [
                71,
                35.25
              ],
              [
                71.39999999999999,
                36.150000000000006
              ],
              [
                71.5,
                36.975
              ],
              [
                71.30000000000001,
                37.725
              ],
              [
                71.55000000000001,
                38.400000000000006
              ],
              [
                72.25,
                39
              ],
              [
                72.89999999999999,
                39.55
              ],
              [
                73.5,
                40.05
              ],
              [
                73.6,
                40.55
              ],
              [
                73.2,
                41.05
              ],
              [
                72.65,
                41.55
              ],
              [
                71.94999999999999,
                42.05
              ],
              [
                71.25,
                42.474999999999994
              ],
              [
                70.55000000000001,
                42.825
              ],
              [
                69.75,
                43.15
              ],
              [
                68.85000000000001,
                43.45
              ],
              [
                67.875,
                43.575
              ],
              [
                66.82499999999999,
                43.525
              ],
              [
                65.725,
                43.525
              ],
              [
                64.575,
                43.575
              ],
              [
                63.375,
                43.550000000000004
              ],
              [
                62.125,
                43.449999999999996
              ],
              [
                61,
                43.55
              ],
              [
                60,
                43.85
              ],
              [
                59.125,
                44.05
              ],
              [
                58.375,
                44.150000000000006
              ],
              [
                57.375,
                44.150000000000006
              ],
              [
                56.125,
                44.05
              ],
              [
                54.975,
                43.5
              ],
              [
                53.925,
                42.5
              ],
              [
                53.4359993790908,
                42.10879950327264
              ],
              [
                53.494734947349485,
                42.11954285027227
              ],
              [
                53.62433624336245,
                42.13690288481013
              ],
              [
                53.753937539375414,
                42.12995887099498
              ],
              [
                53.804338043380454,
                42.117806846818496
              ],
              [
                53.847538475384766,
                42.09176679501172
              ],
              [
                53.955539555395575,
                41.8678223494735
              ],
              [
                53.99513995139952,
                41.772342159515375
              ],
              [
                54.038340383403835,
                41.643877903935305
              ],
              [
                54.0959409594096,
                41.51888565526281
              ],
              [
                54.182341823418255,
                41.4320854825736
              ],
              [
                54.283142831428336,
                41.36438134787599
              ],
              [
                54.592745927459276,
                41.19425300940512
              ],
              [
                54.6719467194672,
                41.121340864346166
              ],
              [
                54.70434704347045,
                41.07099676418642
              ],
              [
                54.71874718747188,
                41.01370865021153
              ],
              [
                54.72234722347224,
                40.95121252587526
              ],
              [
                54.71154711547118,
                40.89045240499283
              ],
              [
                54.68634686346866,
                40.87309237045497
              ],
              [
                54.65754657546577,
                40.85920434282468
              ],
              [
                54.5459454594546,
                40.83142828756414
              ],
              [
                54.373143731437324,
                40.8713563670012
              ],
              [
                54.31914319143192,
                40.83490029447171
              ],
              [
                54.33714337143371,
                40.76546015632033
              ],
              [
                54.37674376743769,
                40.69254801126138
              ],
              [
                54.32994329943301,
                40.68907600435381
              ],
              [
                54.283142831428336,
                40.69428401471515
              ],
              [
                54.19314193141932,
                40.720324066521925
              ],
              [
                54.088740887408875,
                40.70643603889167
              ],
              [
                53.86913869138692,
                40.649147924916775
              ],
              [
                53.76473764737648,
                40.666507959454606
              ],
              [
                53.69273692736928,
                40.7463641183287
              ],
              [
                53.61353613536136,
                40.81927626338765
              ],
              [
                53.519935199352005,
                40.83142828756414
              ],
              [
                53.42273422734229,
                40.793236211580876
              ],
              [
                53.33273332733327,
                40.78282019085819
              ],
              [
                53.192331923319244,
                40.808860242664935
              ],
              [
                53.14553145531457,
                40.82448427374899
              ],
              [
                53.059130591305916,
                40.89045240499283
              ],
              [
                52.99792997929981,
                40.95989254314421
              ],
              [
                52.94392943929441,
                41.0380126985645
              ],
              [
                52.889928899289,
                40.862676349732254
              ],
              [
                52.85032850328503,
                40.685603997446236
              ],
              [
                52.78552785527856,
                40.54672372114348
              ],
              [
                52.73512735127352,
                40.39916342757181
              ],
              [
                52.74592745927461,
                40.22035507183199
              ],
              [
                52.80352803528035,
                40.05369874026866
              ],
              [
                52.89712897128973,
                39.91308246051213
              ],
              [
                52.965529655296564,
                39.833226301638035
              ],
              [
                53.033930339303396,
                39.77420218420937
              ],
              [
                52.95112951129511,
                39.89572242597427
              ],
              [
                52.98712987129872,
                39.98773060902485
              ],
              [
                53.13833138331384,
                39.979050591755936
              ],
              [
                53.28953289532896,
                39.958218550310534
              ],
              [
                53.40473404734047,
                39.959954553764305
              ],
              [
                53.45513455134551,
                39.940858515772675
              ],
              [
                53.48753487534876,
                39.90961045360456
              ],
              [
                53.45873458734587,
                39.831490298184235
              ],
              [
                53.45153451534517,
                39.7481621324026
              ],
              [
                53.47313473134733,
                39.668305973528504
              ],
              [
                53.53433534335343,
                39.64226592172173
              ],
              [
                53.58113581135811,
                39.60754585264604
              ],
              [
                53.602736027360294,
                39.54678573176358
              ],
              [
                53.49833498334985,
                39.53289770413332
              ],
              [
                53.39033390333904,
                39.53636971104089
              ],
              [
                53.30393303933039,
                39.55720175248629
              ],
              [
                53.235532355323556,
                39.60928185609984
              ],
              [
                53.12393123931241,
                39.432209503813795
              ],
              [
                53.12393123931241,
                39.34714533457836
              ],
              [
                53.15633156331563,
                39.26555317225049
              ],
              [
                53.20313203132031,
                39.31763327586401
              ],
              [
                53.267932679326805,
                39.341937324217014
              ],
              [
                53.33633336333364,
                39.340201320763214
              ],
              [
                53.47673476734769,
                39.305481251687524
              ],
              [
                53.5379353793538,
                39.27423318951941
              ],
              [
                53.61713617136172,
                39.215209072090744
              ],
              [
                53.703537035370374,
                39.21000106172937
              ],
              [
                53.710737107371074,
                39.15271294775448
              ],
              [
                53.72513725137253,
                39.10236884759473
              ],
              [
                53.81513815138152,
                39.017304678359295
              ],
              [
                53.86913869138692,
                38.94960054366172
              ],
              [
                53.887138871388714,
                38.86453637442625
              ],
              [
                53.872738727387286,
                38.74128012920755
              ],
              [
                53.85113851138513,
                38.621495890896426
              ],
              [
                53.84033840338404,
                38.51559968021556
              ],
              [
                53.85113851138513,
                38.40623146262715
              ],
              [
                53.854738547385494,
                38.28644722431602
              ],
              [
                53.82593825938261,
                38.04687874769374
              ],
              [
                53.822338223382246,
                37.92709450938261
              ],
              [
                53.847538475384766,
                37.6701659982225
              ],
              [
                53.89793897938981,
                37.41323748706239
              ],
              [
                53.9159391593916,
                37.34379734891101
              ],
              [
                53.95193951939521,
                37.18234902770904
              ],
              [
                54.01674016740168,
                36.953196571809485
              ],
              [
                54.02394023940241,
                36.90111646819595
              ],
              [
                54.01674016740168,
                36.84903636458242
              ],
              [
                53.969939699397,
                36.817788302414286
              ],
              [
                53.905139051390535,
                36.81258029205294
              ],
              [
                53.76833768337684,
                36.817788302414286
              ],
              [
                53.678336783367854,
                36.852508371489975
              ],
              [
                53.82593825938261,
                36.88202043020432
              ],
              [
                53.9159391593916,
                36.93062852691028
              ],
              [
                53.76833768337684,
                36.93062852691028
              ],
              [
                53.37233372333725,
                36.86813240257405
              ],
              [
                52.19152191521917,
                36.62161991213664
              ],
              [
                51.76311763117633,
                36.614675898321494
              ],
              [
                51.11871118711187,
                36.74314015390155
              ],
              [
                50.9279092790928,
                36.81084428859916
              ],
              [
                50.53190531905321,
                37.01395669269195
              ],
              [
                50.33750337503375,
                37.149364962087134
              ],
              [
                50.21510215102151,
                37.34032534200344
              ],
              [
                50.175501755017564,
                37.380253421440486
              ],
              [
                50.12870128701289,
                37.406293473247246
              ],
              [
                49.98109981099813,
                37.44448554923051
              ],
              [
                49.72549725497257,
                37.48094162175998
              ],
              [
                49.469894698947,
                37.49656565284404
              ],
              [
                49.372693726937285,
                37.51913369774324
              ],
              [
                49.171091710917125,
                37.60072586007112
              ],
              [
                49.08109081090811,
                37.668429994768715
              ],
              [
                49.01629016290164,
                37.776062208903355
              ],
              [
                48.95868958689587,
                37.89063843685314
              ],
              [
                48.926289262892624,
                38.01563068552562
              ],
              [
                48.901089010890104,
                38.14409494110569
              ],
              [
                48.87228872288725,
                38.39234343499686
              ],
              [
                48.868688686886884,
                38.43574352134149
              ],
              [
                48.850688506885064,
                38.8159282777203
              ],
              [
                48.85428854288543,
                38.838496322619505
              ],
              [
                48.926289262892624,
                38.961752567838204
              ],
              [
                48.962289622896236,
                39.07806479924176
              ],
              [
                49.012690126901276,
                39.13361690976288
              ],
              [
                49.10989109891099,
                39.0850088130569
              ],
              [
                49.10989109891099,
                39.02945670253578
              ],
              [
                49.120691206912085,
                39.00341665072904
              ],
              [
                49.1638916389164,
                39.02945670253578
              ],
              [
                49.19989199892001,
                39.072856788880415
              ],
              [
                49.26829268292684,
                39.28464921024212
              ],
              [
                49.322293222932245,
                39.32804929658673
              ],
              [
                49.36189361893619,
                39.34888133803216
              ],
              [
                49.36909369093692,
                39.399225438191905
              ],
              [
                49.32589325893261,
                39.50164964196517
              ],
              [
                49.32589325893261,
                39.60754585264604
              ],
              [
                49.40859636122944,
                39.8213077677198
              ],
              [
                49.349999999999994,
                39.800000000000004
              ],
              [
                48.3,
                39.725
              ],
              [
                47.3,
                39.975
              ],
              [
                46.349999999999994,
                40.25
              ],
              [
                45.45,
                40.550000000000004
              ],
              [
                44.375,
                40.775000000000006
              ],
              [
                43.125,
                40.925
              ],
              [
                41.975,
                40.925
              ],
              [
                40.925,
                40.775000000000006
              ],
              [
                40.05,
                40.275000000000006
              ],
              [
                39.35,
                39.425
              ],
              [
                39.25,
                38.725
              ]
            ]
          ],
          [
            [
              [
                52.639537632495475,
                41.49302508833031
              ],
              [
                52.74592745927461,
                41.36611735132979
              ],
              [
                52.82512825128251,
                41.23070908193458
              ],
              [
                52.85032850328503,
                41.19946101976646
              ],
              [
                52.86112861128612,
                41.209877040489175
              ],
              [
                52.82872828728287,
                41.34181330297679
              ],
              [
                52.882728827288275,
                41.61436584522096
              ],
              [
                52.882728827288275,
                41.65255792120422
              ],
              [
                52.874535309451346,
                41.65962824756108
              ],
              [
                52.8,
                41.6
              ],
              [
                52.639537632495475,
                41.49302508833031
              ]
            ]
          ],
          [
            [
              [
                55.95814255759639,
                25.816742976961446
              ],
              [
                56.30268215099984,
                25.678927139600063
              ],
              [
                56.30636306363064,
                25.709102201647028
              ],
              [
                56.3279632796328,
                25.752502287991646
              ],
              [
                56.37476374763747,
                25.80458239160518
              ],
              [
                56.417964179641814,
                26.108382996017482
              ],
              [
                56.417964179641814,
                26.207335192883193
              ],
              [
                56.42876428764288,
                26.327119431194333
              ],
              [
                56.41436414364145,
                26.351423479547307
              ],
              [
                56.37836378363784,
                26.356631489908665
              ],
              [
                56.34596345963462,
                26.313231403564046
              ],
              [
                56.30636306363064,
                26.235111248143753
              ],
              [
                56.22716227162272,
                26.21948721705968
              ],
              [
                56.19836198361983,
                26.229903237782395
              ],
              [
                56.16596165961661,
                26.207335192883193
              ],
              [
                56.07956079560796,
                26.063246906219078
              ],
              [
                56.0759607596076,
                26.052830885496377
              ],
              [
                56.02556025560256,
                25.91568661264739
              ],
              [
                55.95814255759639,
                25.816742976961446
              ]
            ]
          ],
          [
            [
              [
                55.294752947529474,
                26.63960005287555
              ],
              [
                55.312753127531295,
                26.59272795962336
              ],
              [
                55.34155341553415,
                26.585783945808217
              ],
              [
                55.42435424354244,
                26.58231193890066
              ],
              [
                55.54315543155431,
                26.61703200797635
              ],
              [
                55.67635676356764,
                26.686472146127727
              ],
              [
                55.748357483574836,
                26.691680156489085
              ],
              [
                55.849158491584916,
                26.73160823592613
              ],
              [
                55.892358923589256,
                26.73160823592613
              ],
              [
                55.95355953559536,
                26.700360173758
              ],
              [
                56.09396093960942,
                26.80104837407751
              ],
              [
                56.18756187561877,
                26.920832612388637
              ],
              [
                56.28116281162812,
                26.95208067455677
              ],
              [
                56.21276212762129,
                27.002424774716516
              ],
              [
                56.07236072360723,
                26.983328736724886
              ],
              [
                55.906759067590684,
                26.910416591665935
              ],
              [
                55.75915759157593,
                26.94687266419541
              ],
              [
                55.748357483574836,
                26.931248633111352
              ],
              [
                55.78435784357845,
                26.856600484598616
              ],
              [
                55.76275762757629,
                26.81146439480021
              ],
              [
                55.53235532355325,
                26.710776194480715
              ],
              [
                55.34875348753488,
                26.648280070144466
              ],
              [
                55.294752947529474,
                26.656960087413395
              ],
              [
                55.294752947529474,
                26.63960005287555
              ]
            ]
          ]
        ]
      },
      "properties": {
        "stateId": "temuriylar",
        "year": 1405,
        "zone": "markaz",
        "confidence": "ortacha",
        "sourceIds": [
          "bregel-2003",
          "manz-1989",
          "golden-1992",
          "findley-2005"
        ],
        "notes": "Amir Temur vafoti (1405) arafasidagi hudud: Movarounnahr, Xorazm, Xuroson, Afg'oniston (Kobul, Qandahor), Eron, Iroq va Ozarbayjon. Sharqiy Anadolu chegarasi sxematik. Halqa 2026-10-02 da qayta chizildi: nuqtalar tartiblandi, zichlashtirildi va quruqlik chizig'iga kesiladi; sahifa darajasida manbaga solishtirilmagan — ekspert tekshiruvi kerak.",
        "verified": false
      }
    },
    {
      "type": "Feature",
      "geometry": {
        "type": "Polygon",
        "coordinates": [
          [
            [
              41.664577152542016,
              42.148590508473404
            ],
            [
              41.66501665016651,
              42.14731890553281
            ],
            [
              41.76221762217622,
              41.970246553246795
            ],
            [
              41.76221762217622,
              41.88518238401136
            ],
            [
              41.75861758617586,
              41.81747824931375
            ],
            [
              41.71546644030728,
              41.73294463307727
            ],
            [
              42.025,
              41.475
            ],
            [
              43.075,
              41.225
            ],
            [
              44.1,
              41.1
            ],
            [
              45.1,
              41.1
            ],
            [
              45.825,
              41.300000000000004
            ],
            [
              46.275,
              41.699999999999996
            ],
            [
              46.175,
              42.074999999999996
            ],
            [
              45.525000000000006,
              42.425000000000004
            ],
            [
              44.775000000000006,
              42.675000000000004
            ],
            [
              43.925,
              42.824999999999996
            ],
            [
              43.075,
              42.824999999999996
            ],
            [
              42.224999999999994,
              42.675000000000004
            ],
            [
              41.724999999999994,
              42.35
            ],
            [
              41.664577152542016,
              42.148590508473404
            ]
          ]
        ]
      },
      "properties": {
        "stateId": "temuriylar",
        "year": 1405,
        "zone": "vassal",
        "confidence": "past",
        "sourceIds": [
          "bregel-2003",
          "manz-1989",
          "golden-1992",
          "findley-2005"
        ],
        "notes": "Gruziya podsholigi — bir necha yurishlardan keyin o'lpon to'lagan. Halqa 2026-10-02 da qayta chizildi: nuqtalar tartiblandi, zichlashtirildi va quruqlik chizig'iga kesiladi; sahifa darajasida manbaga solishtirilmagan — ekspert tekshiruvi kerak.",
        "verified": false
      }
    },
    {
      "type": "Feature",
      "geometry": {
        "type": "Polygon",
        "coordinates": [
          [
            [
              46.775000000000006,
              41.5
            ],
            [
              47.12499999999999,
              40.699999999999996
            ],
            [
              47.699999999999996,
              40.15
            ],
            [
              48.5,
              39.85
            ],
            [
              49.025,
              39.925000000000004
            ],
            [
              49.275,
              40.375
            ],
            [
              49.05,
              41
            ],
            [
              48.35,
              41.800000000000004
            ],
            [
              47.65,
              42.125
            ],
            [
              46.95,
              41.974999999999994
            ],
            [
              46.775000000000006,
              41.5
            ]
          ]
        ]
      },
      "properties": {
        "stateId": "temuriylar",
        "year": 1405,
        "zone": "vassal",
        "confidence": "past",
        "sourceIds": [
          "bregel-2003",
          "manz-1989",
          "golden-1992",
          "findley-2005"
        ],
        "notes": "Shirvon (Darband) — Shirvonshohlar Temurga tobe bo'lgan. Halqa 2026-10-02 da qayta chizildi: nuqtalar tartiblandi, zichlashtirildi va quruqlik chizig'iga kesiladi; sahifa darajasida manbaga solishtirilmagan — ekspert tekshiruvi kerak.",
        "verified": false
      }
    },
    {
      "type": "Feature",
      "geometry": {
        "type": "Point",
        "coordinates": [
          66.97,
          39.65
        ]
      },
      "properties": {
        "stateId": "temuriylar",
        "year": 1405,
        "kind": "capital",
        "name": "Samarqand",
        "notes": null
      }
    },
    {
      "type": "Feature",
      "geometry": {
        "type": "Point",
        "coordinates": [
          62.2,
          34.35
        ]
      },
      "properties": {
        "stateId": "temuriylar",
        "year": 1405,
        "kind": "city",
        "name": "Hirot",
        "notes": "Shohruh Mirzo davrida poytaxt"
      }
    },
    {
      "type": "Feature",
      "geometry": {
        "type": "Point",
        "coordinates": [
          77.2,
          28.6
        ]
      },
      "properties": {
        "stateId": "temuriylar",
        "year": 1405,
        "kind": "campaign",
        "name": "Dehli yurishi (1398-99)",
        "notes": "Bir martalik harbiy yurish, doimiy hudud emas"
      }
    },
    {
      "type": "Feature",
      "geometry": {
        "type": "Point",
        "coordinates": [
          71.47,
          30.2
        ]
      },
      "properties": {
        "stateId": "temuriylar",
        "year": 1405,
        "kind": "campaign",
        "name": "Multon (1398-99 yurishi)",
        "notes": "Bir martalik harbiy yurish, doimiy hudud emas"
      }
    },
    {
      "type": "Feature",
      "geometry": {
        "type": "Point",
        "coordinates": [
          36.3,
          33.51
        ]
      },
      "properties": {
        "stateId": "temuriylar",
        "year": 1405,
        "kind": "campaign",
        "name": "Damashq yurishi (1400-01)",
        "notes": "Bir martalik harbiy yurish, doimiy hudud emas"
      }
    },
    {
      "type": "Feature",
      "geometry": {
        "type": "Point",
        "coordinates": [
          32.85,
          39.93
        ]
      },
      "properties": {
        "stateId": "temuriylar",
        "year": 1405,
        "kind": "campaign",
        "name": "Anqara jangi (1402)",
        "notes": "Bir martalik jang, doimiy hudud emas"
      }
    },
    {
      "type": "Feature",
      "geometry": {
        "type": "Point",
        "coordinates": [
          46.9,
          47.86
        ]
      },
      "properties": {
        "stateId": "temuriylar",
        "year": 1405,
        "kind": "campaign",
        "name": "Dashti Qipchoq yurishlari (1391/1395)",
        "notes": "Oltin O'rdaga qarshi yurishlar, doimiy hudud emas"
      }
    },
    {
      "type": "Feature",
      "geometry": {
        "type": "Point",
        "coordinates": [
          75.99,
          39.47
        ]
      },
      "properties": {
        "stateId": "temuriylar",
        "year": 1405,
        "kind": "campaign",
        "name": "Qashqar/Mo'g'uliston",
        "notes": "Chegaraviy yurishlar, doimiy hudud emas"
      }
    }
  ]
}