{
  "type": "FeatureCollection",
  "features": [
    {
      "type": "Feature",
      "geometry": {
        "type": "Polygon",
        "coordinates": [
          [
            [
              21.8675,
              47.942499999999995
            ],
            [
              23.7525,
              48.2375
            ],
            [
              25.316250000000004,
              47.979375
            ],
            [
              26.558749999999996,
              47.168124999999996
            ],
            [
              27.479999999999997,
              45.80375
            ],
            [
              28.08,
              43.88625
            ],
            [
              29.49125,
              41.966875
            ],
            [
              31.71375,
              40.045625
            ],
            [
              34.7475,
              38.1225
            ],
            [
              38.5925,
              36.1975
            ],
            [
              41.193124999999995,
              34.010625
            ],
            [
              42.54937499999999,
              31.561875
            ],
            [
              42.661249999999995,
              28.85125
            ],
            [
              41.528749999999995,
              25.878750000000004
            ],
            [
              40.1425,
              24.188125000000003
            ],
            [
              38.5025,
              23.779375
            ],
            [
              36.60875,
              24.652500000000003
            ],
            [
              34.46125,
              26.8075
            ],
            [
              31.722500000000004,
              28.601875
            ],
            [
              28.392500000000002,
              30.035625000000003
            ],
            [
              24.47125,
              31.10875
            ],
            [
              19.958750000000002,
              31.82125
            ],
            [
              16.94,
              33.26875
            ],
            [
              15.415,
              35.45125
            ],
            [
              15.38375,
              38.368750000000006
            ],
            [
              16.84625,
              42.021249999999995
            ],
            [
              18.414375,
              44.834374999999994
            ],
            [
              20.088124999999998,
              46.808125
            ],
            [
              21.8675,
              47.942499999999995
            ]
          ]
        ]
      },
      "properties": {
        "stateId": "usmonli-imperiyasi",
        "year": 1683,
        "zone": "markaz",
        "confidence": "ortacha",
        "sourceIds": [
          "findley-2005",
          "pitcher-1972"
        ],
        "notes": "1683-yil — imperiyaning eng katta yoyilish davri (Vena qamali yili). 1299-1922 davrining boshqa davrlariga mos kelmaydi.",
        "verified": false
      }
    },
    {
      "type": "Feature",
      "geometry": {
        "type": "Polygon",
        "coordinates": [
          [
            [
              25.1,
              46.91625
            ],
            [
              26.1,
              47.01375
            ],
            [
              27.241250000000004,
              46.93625
            ],
            [
              28.52375,
              46.683749999999996
            ],
            [
              29.9475,
              46.256249999999994
            ],
            [
              31.512500000000003,
              45.65375
            ],
            [
              32.20125,
              45.181875000000005
            ],
            [
              32.01375,
              44.840624999999996
            ],
            [
              30.950000000000003,
              44.629999999999995
            ],
            [
              29.01,
              44.55
            ],
            [
              27.39875,
              44.636250000000004
            ],
            [
              26.116250000000004,
              44.88875
            ],
            [
              25.1625,
              45.307500000000005
            ],
            [
              24.5375,
              45.8925
            ],
            [
              24.31875,
              46.355625
            ],
            [
              24.50625,
              46.696875
            ],
            [
              25.1,
              46.91625
            ]
          ]
        ]
      },
      "properties": {
        "stateId": "usmonli-imperiyasi",
        "year": 1683,
        "zone": "vassal",
        "confidence": "ortacha",
        "sourceIds": [
          "findley-2005",
          "pitcher-1972"
        ],
        "notes": "Qrim xonligi, Moldaviya, Valaxiya, Transilvaniya",
        "verified": false
      }
    },
    {
      "type": "Feature",
      "geometry": {
        "type": "Polygon",
        "coordinates": [
          [
            [
              3.06,
              38.09898054558681
            ],
            [
              2.836308442635114,
              38.08723203310234
            ],
            [
              2.6166533859749213,
              38.05219872420186
            ],
            [
              2.404986808297402,
              37.994512828827666
            ],
            [
              2.20509434109517,
              37.915213258644044
            ],
            [
              2.0205186749550372,
              37.81572397616069
            ],
            [
              1.854490413551496,
              37.69782466264308
            ],
            [
              1.7098681632509833,
              37.563614608900814
            ],
            [
              1.5890891416620967,
              37.41547089349431
            ],
            [
              1.494131056826183,
              37.256002014688775
            ],
            [
              1.4264854939053688,
              37.087998186068816
            ],
            [
              1.3871425854076147,
              36.91437949633492
            ],
            [
              1.3765863609757534,
              36.73814308021002
            ],
            [
              1.3947998885017767,
              36.562310360446794
            ],
            [
              1.4412791333251944,
              36.389875312101445
            ],
            [
              1.5150543704449275,
              36.22375458032997
            ],
            [
              1.6147179729702943,
              36.06674016118133
            ],
            [
              1.7384574513563398,
              35.92145523830705
            ],
            [
              1.884092713841052,
              35.790313661984385
            ],
            [
              2.0491166412419517,
              35.67548346301337
            ],
            [
              2.2307382034564234,
              35.57885471372577
            ],
            [
              2.4259274782838505,
              35.50201198099009
            ],
            [
              2.6314620564523903,
              35.446211560255904
            ],
            [
              2.8439744239154234,
              35.4123636334085
            ],
            [
              3.0599999999999996,
              35.401019454413195
            ],
            [
              3.2760255760845762,
              35.4123636334085
            ],
            [
              3.4885379435476085,
              35.446211560255904
            ],
            [
              3.6940725217161483,
              35.50201198099009
            ],
            [
              3.8892617965435776,
              35.57885471372577
            ],
            [
              4.070883358758049,
              35.67548346301337
            ],
            [
              4.235907286158949,
              35.790313661984385
            ],
            [
              4.38154254864366,
              35.92145523830705
            ],
            [
              4.505282027029705,
              36.06674016118133
            ],
            [
              4.604945629555073,
              36.22375458032997
            ],
            [
              4.678720866674806,
              36.389875312101445
            ],
            [
              4.725200111498224,
              36.562310360446794
            ],
            [
              4.743413639024246,
              36.73814308021002
            ],
            [
              4.732857414592385,
              36.91437949633492
            ],
            [
              4.693514506094631,
              37.08799818606883
            ],
            [
              4.625868943173817,
              37.256002014688775
            ],
            [
              4.530910858337903,
              37.41547089349431
            ],
            [
              4.4101318367490165,
              37.563614608900814
            ],
            [
              4.265509586448505,
              37.69782466264308
            ],
            [
              4.099481325044963,
              37.81572397616069
            ],
            [
              3.9149056589048308,
              37.915213258644044
            ],
            [
              3.715013191702597,
              37.994512828827666
            ],
            [
              3.5033466140250793,
              38.05219872420186
            ],
            [
              3.2836915573648864,
              38.08723203310234
            ],
            [
              3.06,
              38.09898054558681
            ]
          ]
        ]
      },
      "properties": {
        "stateId": "usmonli-imperiyasi",
        "year": 1683,
        "zone": "vassal",
        "confidence": "past",
        "sourceIds": [
          "findley-2005",
          "pitcher-1972"
        ],
        "notes": "Jazoir — amalda avtonom \"ojaq\"",
        "verified": false
      }
    },
    {
      "type": "Feature",
      "geometry": {
        "type": "Polygon",
        "coordinates": [
          [
            [
              10.18,
              37.879184436469444
            ],
            [
              10.001570323254777,
              37.86981938397639
            ],
            [
              9.826325968769078,
              37.84189153243552
            ],
            [
              9.657388129963879,
              37.79589941494788
            ],
            [
              9.497751594321402,
              37.7326627377149
            ],
            [
              9.350226070027103,
              37.65330595115154
            ],
            [
              9.217382678251196,
              37.55923591858548
            ],
            [
              9.101506909922602,
              37.45211430708314
            ],
            [
              9.004559033030084,
              37.33382544460207
            ],
            [
              8.928142599820454,
              37.20644047110649
            ],
            [
              8.873481368355502,
              37.07217865779825
            ],
            [
              8.84140464229575,
              36.93336678029472
            ],
            [
              8.832340764012976,
              36.792397412727716
            ],
            [
              8.846318280579473,
              36.65168696613342
            ],
            [
              8.882974144929001,
              36.513634232648435
            ],
            [
              8.941568214936154,
              36.38058012341043
            ],
            [
              9.021003266183481,
              36.254769208581116
            ],
            [
              9.119849731525044,
              36.13831358748587
            ],
            [
              9.236374412276536,
              36.03315953922944
            ],
            [
              9.368572461624222,
              35.9410573318179
            ],
            [
              9.514202010887246,
              35.863534502188024
            ],
            [
              9.67082088506971,
              35.801872861077676
            ],
            [
              9.835824928755802,
              35.75708942511671
            ],
            [
              10.006487531533951,
              35.72992143314222
            ],
            [
              10.18,
              35.72081556353055
            ],
            [
              10.353512468466045,
              35.72992143314222
            ],
            [
              10.524175071244196,
              35.75708942511671
            ],
            [
              10.689179114930289,
              35.801872861077676
            ],
            [
              10.845797989112754,
              35.863534502188024
            ],
            [
              10.991427538375776,
              35.9410573318179
            ],
            [
              11.123625587723463,
              36.03315953922944
            ],
            [
              11.240150268474956,
              36.13831358748587
            ],
            [
              11.33899673381652,
              36.254769208581116
            ],
            [
              11.418431785063845,
              36.38058012341043
            ],
            [
              11.477025855070998,
              36.513634232648435
            ],
            [
              11.513681719420527,
              36.65168696613342
            ],
            [
              11.527659235987024,
              36.792397412727716
            ],
            [
              11.518595357704248,
              36.93336678029472
            ],
            [
              11.486518631644499,
              37.07217865779825
            ],
            [
              11.431857400179544,
              37.20644047110649
            ],
            [
              11.355440966969915,
              37.33382544460207
            ],
            [
              11.2584930900774,
              37.45211430708314
            ],
            [
              11.142617321748803,
              37.55923591858548
            ],
            [
              11.009773929972896,
              37.65330595115154
            ],
            [
              10.862248405678598,
              37.7326627377149
            ],
            [
              10.702611870036119,
              37.79589941494788
            ],
            [
              10.533674031230921,
              37.84189153243552
            ],
            [
              10.358429676745224,
              37.86981938397639
            ],
            [
              10.18,
              37.879184436469444
            ]
          ]
        ]
      },
      "properties": {
        "stateId": "usmonli-imperiyasi",
        "year": 1683,
        "zone": "vassal",
        "confidence": "past",
        "sourceIds": [
          "findley-2005",
          "pitcher-1972"
        ],
        "notes": "Tunis — amalda avtonom \"ojaq\"",
        "verified": false
      }
    },
    {
      "type": "Feature",
      "geometry": {
        "type": "Polygon",
        "coordinates": [
          [
            [
              42.7,
              43.149320363724534
            ],
            [
              42.53913182763282,
              43.14151512158924
            ],
            [
              42.38113629575409,
              43.11823886140121
            ],
            [
              42.228828202089794,
              43.07990716207779
            ],
            [
              42.08490832206946,
              43.02720333872298
            ],
            [
              41.95191046772759,
              42.96106475282706
            ],
            [
              41.83215319222952,
              42.88266420011506
            ],
            [
              41.72769731417158,
              42.793386893614716
            ],
            [
              41.64031015772791,
              42.694803659808215
            ],
            [
              41.57143710409828,
              42.58864103647644
            ],
            [
              41.52218074897101,
              42.47674900125804
            ],
            [
              41.49328767985206,
              42.36106707147136
            ],
            [
              41.48514264196324,
              42.24358950165087
            ],
            [
              41.49776966264861,
              42.12633027006443
            ],
            [
              41.53083955710766,
              42.01128849439965
            ],
            [
              41.58368314307492,
              41.90041485513995
            ],
            [
              41.655309444971444,
              41.79557953782379
            ],
            [
              41.74442816231593,
              41.69854213662518
            ],
            [
              41.849475704321215,
              41.61092389484242
            ],
            [
              41.96864414350162,
              41.53418259530915
            ],
            [
              42.099912506911465,
              41.4695903569066
            ],
            [
              42.241079896326305,
              41.41821454291406
            ],
            [
              42.38980000148968,
              41.38090194289605
            ],
            [
              42.543616638059554,
              41.3582663517155
            ],
            [
              42.7,
              41.35067963627546
            ],
            [
              42.85638336194046,
              41.3582663517155
            ],
            [
              43.01019999851032,
              41.38090194289605
            ],
            [
              43.158920103673694,
              41.41821454291406
            ],
            [
              43.30008749308855,
              41.4695903569066
            ],
            [
              43.431355856498385,
              41.53418259530915
            ],
            [
              43.55052429567879,
              41.61092389484242
            ],
            [
              43.65557183768408,
              41.69854213662518
            ],
            [
              43.744690555028555,
              41.79557953782379
            ],
            [
              43.81631685692508,
              41.90041485513995
            ],
            [
              43.869160442892344,
              42.01128849439965
            ],
            [
              43.9022303373514,
              42.12633027006443
            ],
            [
              43.91485735803677,
              42.24358950165087
            ],
            [
              43.906712320147946,
              42.36106707147136
            ],
            [
              43.877819251028995,
              42.47674900125804
            ],
            [
              43.828562895901726,
              42.58864103647644
            ],
            [
              43.759689842272095,
              42.694803659808215
            ],
            [
              43.67230268582843,
              42.793386893614716
            ],
            [
              43.567846807770486,
              42.88266420011506
            ],
            [
              43.448089532272405,
              42.96106475282706
            ],
            [
              43.315091677930546,
              43.02720333872298
            ],
            [
              43.17117179791021,
              43.07990716207779
            ],
            [
              43.01886370424592,
              43.11823886140121
            ],
            [
              42.86086817236719,
              43.14151512158924
            ],
            [
              42.7,
              43.149320363724534
            ]
          ]
        ]
      },
      "properties": {
        "stateId": "usmonli-imperiyasi",
        "year": 1683,
        "zone": "vassal",
        "confidence": "past",
        "sourceIds": [
          "findley-2005",
          "pitcher-1972"
        ],
        "notes": "G'arbiy Gruziya qismlari",
        "verified": false
      }
    },
    {
      "type": "Feature",
      "geometry": {
        "type": "Point",
        "coordinates": [
          28.98,
          41.01
        ]
      },
      "properties": {
        "stateId": "usmonli-imperiyasi",
        "year": 1683,
        "kind": "capital",
        "name": "Istanbul",
        "notes": null
      }
    },
    {
      "type": "Feature",
      "geometry": {
        "type": "Point",
        "coordinates": [
          44.36,
          33.31
        ]
      },
      "properties": {
        "stateId": "usmonli-imperiyasi",
        "year": 1683,
        "kind": "city",
        "name": "Bag'dod",
        "notes": null
      }
    },
    {
      "type": "Feature",
      "geometry": {
        "type": "Point",
        "coordinates": [
          33,
          35
        ]
      },
      "properties": {
        "stateId": "usmonli-imperiyasi",
        "year": 1683,
        "kind": "region",
        "name": "Kipr",
        "notes": "Orol, bevosita boshqarilgan"
      }
    },
    {
      "type": "Feature",
      "geometry": {
        "type": "Point",
        "coordinates": [
          24.8,
          35.24
        ]
      },
      "properties": {
        "stateId": "usmonli-imperiyasi",
        "year": 1683,
        "kind": "region",
        "name": "Krit",
        "notes": "1669-yildan bevosita boshqarilgan"
      }
    }
  ]
}