{
  "type": "FeatureCollection",
  "features": [
    {
      "type": "Feature",
      "geometry": {
        "type": "Polygon",
        "coordinates": [
          [
            [
              37.1,
              45.12499999999999
            ],
            [
              38.1,
              44.775000000000006
            ],
            [
              39.45,
              44.575
            ],
            [
              41.15,
              44.525
            ],
            [
              43,
              44.625
            ],
            [
              45,
              44.875
            ],
            [
              46.4,
              45.25
            ],
            [
              47.2,
              45.75
            ],
            [
              48.45,
              46.25
            ],
            [
              49.346973975964836,
              46.513815875283775
            ],
            [
              49.347493474934765,
              46.51857560216229
            ],
            [
              49.403715647926745,
              46.5305046023314
            ],
            [
              50.15,
              46.75
            ],
            [
              50.22772418720677,
              46.75728664255063
            ],
            [
              50.30510305103053,
              46.79460015131403
            ],
            [
              50.420304203042036,
              46.879664320549466
            ],
            [
              50.47070470704708,
              46.88313632745704
            ],
            [
              50.528305283052845,
              46.87272030673432
            ],
            [
              50.58230582305825,
              46.88313632745704
            ],
            [
              50.679506795067965,
              46.93868843797816
            ],
            [
              50.73350733507337,
              46.950840462154645
            ],
            [
              50.920709207092074,
              47.041112641751425
            ],
            [
              51.17631176311764,
              47.110552779902804
            ],
            [
              51.29151291512915,
              47.096664752272545
            ],
            [
              51.61551615516157,
              47.03069662102874
            ],
            [
              51.651516515165156,
              47.01854459685222
            ],
            [
              51.74511745117451,
              46.933480427616786
            ],
            [
              51.94671946719467,
              46.895288351633525
            ],
            [
              52.011520115201165,
              46.90223236544867
            ],
            [
              52.065032714004815,
              46.85799563813269
            ],
            [
              52.191664706304444,
              46.84111137249274
            ],
            [
              52.339123391233926,
              46.895288351633525
            ],
            [
              52.3859238592386,
              46.9213284034403
            ],
            [
              52.421924219242214,
              46.96299248633113
            ],
            [
              52.48312483124832,
              46.99076854159168
            ],
            [
              52.67752677526775,
              46.95778447596979
            ],
            [
              52.915129151291524,
              46.95431246906222
            ],
            [
              53.033930339303396,
              46.89355234817975
            ],
            [
              53.06993069930701,
              46.85536027219649
            ],
            [
              53.13833138331384,
              46.74252004770048
            ],
            [
              53.15138317863219,
              46.71314890951571
            ],
            [
              53.25,
              46.7
            ],
            [
              55,
              46.25
            ],
            [
              57,
              45.550000000000004
            ],
            [
              59,
              45.050000000000004
            ],
            [
              61,
              44.75
            ],
            [
              63,
              44.400000000000006
            ],
            [
              65,
              43.99999999999999
            ],
            [
              67,
              43.39999999999999
            ],
            [
              69,
              42.6
            ],
            [
              70.75,
              42.275000000000006
            ],
            [
              72.25,
              42.425
            ],
            [
              73.75,
              42.5
            ],
            [
              75.25,
              42.5
            ],
            [
              77,
              42.575
            ],
            [
              79,
              42.724999999999994
            ],
            [
              81,
              43.099999999999994
            ],
            [
              83,
              43.7
            ],
            [
              85.5,
              43.9
            ],
            [
              88.5,
              43.7
            ],
            [
              91.25,
              43.300000000000004
            ],
            [
              93.75,
              42.699999999999996
            ],
            [
              96.25,
              42.05
            ],
            [
              98.75,
              41.35
            ],
            [
              101.5,
              41
            ],
            [
              104.5,
              41
            ],
            [
              107.5,
              41.1
            ],
            [
              110.5,
              41.3
            ],
            [
              113.25,
              41.55
            ],
            [
              115.75,
              41.85
            ],
            [
              118,
              42.5
            ],
            [
              120,
              43.5
            ],
            [
              121.25,
              44.75
            ],
            [
              121.75,
              46.25
            ],
            [
              120.75,
              47.65
            ],
            [
              118.25,
              48.95
            ],
            [
              115.25,
              49.95
            ],
            [
              108.5,
              51.3
            ],
            [
              105.5,
              51.900000000000006
            ],
            [
              102.25,
              52.050000000000004
            ],
            [
              98.75,
              51.75
            ],
            [
              95.25,
              51.6
            ],
            [
              91.75,
              51.6
            ],
            [
              88.5,
              51.85
            ],
            [
              85.5,
              52.35
            ],
            [
              82,
              52.95
            ],
            [
              78,
              53.65
            ],
            [
              74,
              54.125
            ],
            [
              70,
              54.375
            ],
            [
              66,
              54.275
            ],
            [
              62,
              53.825
            ],
            [
              58.25,
              53.325
            ],
            [
              54.75,
              52.775
            ],
            [
              51.875,
              52.125
            ],
            [
              49.625,
              51.375
            ],
            [
              47.375,
              50.4
            ],
            [
              45.125,
              49.2
            ],
            [
              43,
              48.2
            ],
            [
              41,
              47.4
            ],
            [
              39.15,
              46.575
            ],
            [
              38.378518998142404,
              46.1892594990712
            ],
            [
              38.49338493384934,
              46.0897827490775
            ],
            [
              38.39978399783999,
              46.07936672835481
            ],
            [
              38.31338313383134,
              46.09499075943887
            ],
            [
              38.189981518877744,
              46.09499075943887
            ],
            [
              38.18144329024504,
              46.090721645122514
            ],
            [
              38.13338133381333,
              46.00298257638829
            ],
            [
              38.07938079380796,
              45.935278441690684
            ],
            [
              38.068580685806864,
              45.969998510766374
            ],
            [
              38.07218072180723,
              46.01687060401855
            ],
            [
              38.053744427319245,
              46.026872213659615
            ],
            [
              37.91142993496262,
              45.955714967481306
            ],
            [
              37.841778417784184,
              45.7998701722955
            ],
            [
              37.66897668976691,
              45.6540458821776
            ],
            [
              37.61137611376114,
              45.56550970603459
            ],
            [
              37.61137611376114,
              45.499541574790754
            ],
            [
              37.632976329763295,
              45.485653547160496
            ],
            [
              37.67257672576727,
              45.48912555406807
            ],
            [
              37.67257672576727,
              45.430101436639376
            ],
            [
              37.64737647376475,
              45.378021333025856
            ],
            [
              37.265772657726586,
              45.31031719832825
            ],
            [
              37.215372153721546,
              45.27212512234499
            ],
            [
              37.18997169619675,
              45.279237193480135
            ],
            [
              37.1,
              45.12499999999999
            ]
          ]
        ]
      },
      "properties": {
        "stateId": "gokturk-xoqonligi",
        "year": 576,
        "zone": "markaz",
        "confidence": "past",
        "sourceIds": [
          "golden-1992",
          "sinor-1990"
        ],
        "notes": "Ko'chmanchi konfederatsiya sifatida chegara tushunchasi zamonaviy davlat chegarasidan farq qiladi — bu chiziq 576-yil atrofida nazorat qilingan umumiy dasht mintaqasini (Qora dengizning shimoli-sharqidan Manchuriyagacha) ko'rsatadi. Halqa 2026-10-02 da qayta chizildi: nuqtalar tartiblandi, zichlashtirildi va quruqlik chizig'iga kesiladi; sahifa darajasida manbaga solishtirilmagan — ekspert tekshiruvi kerak.",
        "verified": false
      }
    },
    {
      "type": "Feature",
      "geometry": {
        "type": "Polygon",
        "coordinates": [
          [
            [
              62.5,
              39
            ],
            [
              63,
              38.125
            ],
            [
              64,
              37.375
            ],
            [
              65,
              36.85
            ],
            [
              66,
              36.55
            ],
            [
              67,
              36.449999999999996
            ],
            [
              68,
              36.550000000000004
            ],
            [
              68.75,
              36.825
            ],
            [
              69.25,
              37.275
            ],
            [
              69.875,
              37.875
            ],
            [
              70.625,
              38.625
            ],
            [
              71.125,
              39.375
            ],
            [
              71.375,
              40.125
            ],
            [
              70.875,
              40.65
            ],
            [
              69.625,
              40.95
            ],
            [
              68.5,
              41.225
            ],
            [
              67.5,
              41.475
            ],
            [
              66.375,
              41.6
            ],
            [
              65.125,
              41.6
            ],
            [
              64,
              41.325
            ],
            [
              63,
              40.775
            ],
            [
              62.5,
              40
            ],
            [
              62.5,
              39
            ]
          ]
        ]
      },
      "properties": {
        "stateId": "gokturk-xoqonligi",
        "year": 576,
        "zone": "vassal",
        "confidence": "past",
        "sourceIds": [
          "golden-1992",
          "sinor-1990"
        ],
        "notes": "So'g'd va Toxariston (Samarqand, Termiz) — mahalliy hukmdorlar xoqonlikka tobe. Halqa 2026-10-02 da qayta chizildi: nuqtalar tartiblandi, zichlashtirildi va quruqlik chizig'iga kesiladi; sahifa darajasida manbaga solishtirilmagan — ekspert tekshiruvi kerak.",
        "verified": false
      }
    },
    {
      "type": "Feature",
      "geometry": {
        "type": "Polygon",
        "coordinates": [
          [
            [
              74.725,
              39.125
            ],
            [
              75.17500000000001,
              38.375
            ],
            [
              75.92500000000001,
              37.85
            ],
            [
              76.975,
              37.55
            ],
            [
              78.125,
              37.8
            ],
            [
              79.375,
              38.6
            ],
            [
              81,
              39.35
            ],
            [
              83,
              40.05
            ],
            [
              85,
              40.55
            ],
            [
              87,
              40.85
            ],
            [
              88.8,
              41.3
            ],
            [
              90.4,
              41.900000000000006
            ],
            [
              90.9,
              42.425000000000004
            ],
            [
              90.3,
              42.875
            ],
            [
              89.25,
              42.975
            ],
            [
              87.75,
              42.725
            ],
            [
              86,
              42.475
            ],
            [
              80,
              41.725
            ],
            [
              78.25,
              41.35
            ],
            [
              76.75,
              40.85
            ],
            [
              75.625,
              40.325
            ],
            [
              74.875,
              39.775
            ],
            [
              74.725,
              39.125
            ]
          ]
        ]
      },
      "properties": {
        "stateId": "gokturk-xoqonligi",
        "year": 576,
        "zone": "vassal",
        "confidence": "past",
        "sourceIds": [
          "golden-1992",
          "sinor-1990"
        ],
        "notes": "Tarim havzasi shahar-davlatlari (Ko'cha, Turfon va b.). Halqa 2026-10-02 da qayta chizildi: nuqtalar tartiblandi, zichlashtirildi va quruqlik chizig'iga kesiladi; sahifa darajasida manbaga solishtirilmagan — ekspert tekshiruvi kerak.",
        "verified": false
      }
    },
    {
      "type": "Feature",
      "geometry": {
        "type": "Polygon",
        "coordinates": [
          [
            [
              87.1,
              54.95
            ],
            [
              87.30000000000001,
              53.65
            ],
            [
              88.05000000000001,
              52.75
            ],
            [
              89.35,
              52.25
            ],
            [
              91.25,
              52.1
            ],
            [
              93.75,
              52.3
            ],
            [
              95.25,
              53.05
            ],
            [
              95.75,
              54.35
            ],
            [
              95,
              55.4
            ],
            [
              93,
              56.2
            ],
            [
              90.75,
              56.35
            ],
            [
              88.25,
              55.85
            ],
            [
              87.1,
              54.95
            ]
          ]
        ]
      },
      "properties": {
        "stateId": "gokturk-xoqonligi",
        "year": 576,
        "zone": "vassal",
        "confidence": "past",
        "sourceIds": [
          "golden-1992",
          "sinor-1990"
        ],
        "notes": "Enasoy qirg'izlari. Halqa 2026-10-02 da qayta chizildi: nuqtalar tartiblandi, zichlashtirildi va quruqlik chizig'iga kesiladi; sahifa darajasida manbaga solishtirilmagan — ekspert tekshiruvi kerak.",
        "verified": false
      }
    },
    {
      "type": "Feature",
      "geometry": {
        "type": "Polygon",
        "coordinates": [
          [
            [
              65.5,
              35.4
            ],
            [
              66,
              34.7
            ],
            [
              67,
              34.099999999999994
            ],
            [
              68.125,
              33.724999999999994
            ],
            [
              69.375,
              33.575
            ],
            [
              70.275,
              34
            ],
            [
              70.82499999999999,
              35
            ],
            [
              70.69999999999999,
              35.85
            ],
            [
              69.9,
              36.55
            ],
            [
              68.5,
              36.824999999999996
            ],
            [
              66.5,
              36.675000000000004
            ],
            [
              65.5,
              36.2
            ],
            [
              65.5,
              35.4
            ]
          ]
        ]
      },
      "properties": {
        "stateId": "gokturk-xoqonligi",
        "year": 576,
        "zone": "ta'sir-doirasi",
        "confidence": "past",
        "sourceIds": [
          "golden-1992",
          "sinor-1990"
        ],
        "notes": "Amudaryo janubi (Kobul tomon) — asosan VII asr boshi, G'arbiy xoqonlik davri. Halqa 2026-10-02 da qayta chizildi: nuqtalar tartiblandi, zichlashtirildi va quruqlik chizig'iga kesiladi; sahifa darajasida manbaga solishtirilmagan — ekspert tekshiruvi kerak.",
        "verified": false
      }
    },
    {
      "type": "Feature",
      "geometry": {
        "type": "Point",
        "coordinates": [
          101.5,
          47.5
        ]
      },
      "properties": {
        "stateId": "gokturk-xoqonligi",
        "year": 576,
        "kind": "capital",
        "name": "Ötüken",
        "notes": null
      }
    },
    {
      "type": "Feature",
      "geometry": {
        "type": "Point",
        "coordinates": [
          75.2,
          42.8
        ]
      },
      "properties": {
        "stateId": "gokturk-xoqonligi",
        "year": 576,
        "kind": "city",
        "name": "Suyob (G'arbiy yabg'u qarorgohi)",
        "notes": null
      }
    }
  ]
}