{
  "type": "FeatureCollection",
  "features": [
    {
      "type": "Feature",
      "geometry": {
        "type": "Polygon",
        "coordinates": [
          [
            [
              37.33875,
              49.4925
            ],
            [
              42.03125000000001,
              51.6875
            ],
            [
              47.502500000000005,
              53.0475
            ],
            [
              53.7525,
              53.5725
            ],
            [
              60.78125,
              53.262499999999996
            ],
            [
              68.58874999999999,
              52.1175
            ],
            [
              73.69812499999999,
              50.85875
            ],
            [
              76.109375,
              49.48624999999999
            ],
            [
              75.82249999999999,
              47.99999999999999
            ],
            [
              72.8375,
              46.400000000000006
            ],
            [
              70.023125,
              45.095625
            ],
            [
              67.37937499999998,
              44.086875
            ],
            [
              64.90624999999999,
              43.37375
            ],
            [
              62.603750000000005,
              42.95625
            ],
            [
              60.198125000000005,
              42.62625
            ],
            [
              57.689375,
              42.383750000000006
            ],
            [
              55.07749999999999,
              42.228750000000005
            ],
            [
              52.362500000000004,
              42.161249999999995
            ],
            [
              49.424375000000005,
              42.27875
            ],
            [
              46.263125,
              42.58125
            ],
            [
              42.878750000000004,
              43.068749999999994
            ],
            [
              39.27125,
              43.74125000000001
            ],
            [
              36.343125,
              44.33625000000001
            ],
            [
              34.094375,
              44.85374999999999
            ],
            [
              32.525,
              45.293749999999996
            ],
            [
              31.635,
              45.65625
            ],
            [
              32.140625,
              46.47687500000001
            ],
            [
              34.041875,
              47.755625
            ],
            [
              37.33875,
              49.4925
            ]
          ]
        ]
      },
      "properties": {
        "stateId": "oltin-orda",
        "year": 1350,
        "zone": "markaz",
        "confidence": "ortacha",
        "sourceIds": [
          "golden-1992",
          "favereau-2021"
        ],
        "notes": "Dasht mintaqasidagi ko'chmanchi davlat chegarasi sxematik.",
        "verified": false
      }
    },
    {
      "type": "Feature",
      "geometry": {
        "type": "Polygon",
        "coordinates": [
          [
            [
              38.9375,
              56.65
            ],
            [
              40.962500000000006,
              56.51
            ],
            [
              42.25625,
              56.394375
            ],
            [
              42.81875,
              56.303124999999994
            ],
            [
              42.650000000000006,
              56.23625
            ],
            [
              41.75,
              56.193749999999994
            ],
            [
              41.03125,
              56.068124999999995
            ],
            [
              40.49374999999999,
              55.859375
            ],
            [
              40.137499999999996,
              55.5675
            ],
            [
              39.9625,
              55.1925
            ],
            [
              39.70125,
              54.98125
            ],
            [
              39.35375,
              54.93375
            ],
            [
              38.92,
              55.050000000000004
            ],
            [
              38.4,
              55.33
            ],
            [
              37.9025,
              55.609375
            ],
            [
              37.427499999999995,
              55.888125
            ],
            [
              36.974999999999994,
              56.166250000000005
            ],
            [
              36.545,
              56.44375
            ],
            [
              36.72875,
              56.616875
            ],
            [
              37.52625,
              56.685625
            ],
            [
              38.9375,
              56.65
            ]
          ]
        ]
      },
      "properties": {
        "stateId": "oltin-orda",
        "year": 1350,
        "zone": "vassal",
        "confidence": "ortacha",
        "sourceIds": [
          "golden-1992",
          "favereau-2021"
        ],
        "notes": "Rus knyazliklari (Vladimir, Moskva, Tver, Ryazan, Nijniy Novgorod)",
        "verified": false
      }
    },
    {
      "type": "Feature",
      "geometry": {
        "type": "Polygon",
        "coordinates": [
          [
            [
              84,
              49.79864072744908
            ],
            [
              83.63646124198122,
              49.78269444082082
            ],
            [
              83.2798349270565,
              49.73515956872117
            ],
            [
              82.93686123265526,
              49.656940383389575
            ],
            [
              82.61394361918641,
              49.549518734474056
            ],
            [
              82.31699931555697,
              49.414917389981085
            ],
            [
              82.05133057986048,
              49.25565108725529
            ],
            [
              81.82152087469291,
              49.07466740517525
            ],
            [
              81.6313582046154,
              48.8752798409932
            ],
            [
              81.48378600252816,
              48.661095566152845
            ],
            [
              81.38088031298865,
              48.43594026180844
            ],
            [
              81.32385073666366,
              48.20378222917242
            ],
            [
              81.31306173644487,
              47.968657673339926
            ],
            [
              81.34807046421709,
              47.73459871446112
            ],
            [
              81.42767720044995,
              47.505565325373716
            ],
            [
              81.54998472851337,
              47.285382060402895
            ],
            [
              81.71246340138089,
              47.077680146732064
            ],
            [
              81.91201921232226,
              46.88584526888822
            ],
            [
              82.1450627781604,
              46.71297119180738
            ],
            [
              82.40757772634284,
              46.56181923599806
            ],
            [
              82.69518750686939,
              46.434783533014446
            ],
            [
              83.00322010534158,
              46.333861942390364
            ],
            [
              83.3267705058233,
              46.26063249358771
            ],
            [
              83.66076104307922,
              46.21623522027476
            ],
            [
              84,
              46.20135927255094
            ],
            [
              84.3392389569208,
              46.21623522027476
            ],
            [
              84.6732294941767,
              46.26063249358771
            ],
            [
              84.99677989465843,
              46.333861942390364
            ],
            [
              85.30481249313063,
              46.434783533014446
            ],
            [
              85.59242227365716,
              46.56181923599806
            ],
            [
              85.85493722183962,
              46.71297119180738
            ],
            [
              86.08798078767775,
              46.88584526888822
            ],
            [
              86.28753659861913,
              47.077680146732064
            ],
            [
              86.45001527148665,
              47.285382060402895
            ],
            [
              86.57232279955007,
              47.50556532537374
            ],
            [
              86.65192953578293,
              47.73459871446112
            ],
            [
              86.68693826355513,
              47.968657673339926
            ],
            [
              86.67614926333634,
              48.20378222917242
            ],
            [
              86.61911968701135,
              48.43594026180845
            ],
            [
              86.51621399747185,
              48.661095566152845
            ],
            [
              86.36864179538462,
              48.8752798409932
            ],
            [
              86.17847912530709,
              49.07466740517525
            ],
            [
              85.94866942013954,
              49.25565108725529
            ],
            [
              85.68300068444304,
              49.414917389981085
            ],
            [
              85.3860563808136,
              49.549518734474056
            ],
            [
              85.06313876734474,
              49.656940383389575
            ],
            [
              84.7201650729435,
              49.73515956872117
            ],
            [
              84.36353875801878,
              49.78269444082082
            ],
            [
              84,
              49.79864072744908
            ]
          ]
        ]
      },
      "properties": {
        "stateId": "oltin-orda",
        "year": 1350,
        "zone": "ta'sir-doirasi",
        "confidence": "past",
        "sourceIds": [
          "golden-1992",
          "favereau-2021"
        ],
        "notes": "Sharqiy Qipchoq (Ko'k O'rda/Oq O'rda) chegarasi Zaysan ko'li tomon",
        "verified": false
      }
    },
    {
      "type": "Feature",
      "geometry": {
        "type": "Point",
        "coordinates": [
          47.4,
          46.6
        ]
      },
      "properties": {
        "stateId": "oltin-orda",
        "year": 1350,
        "kind": "capital",
        "name": "Saroy (Saroy-Botu)",
        "notes": null
      }
    },
    {
      "type": "Feature",
      "geometry": {
        "type": "Point",
        "coordinates": [
          48.6,
          45.3
        ]
      },
      "properties": {
        "stateId": "oltin-orda",
        "year": 1350,
        "kind": "city",
        "name": "Saroy al-Jadid (Saroy-Berke)",
        "notes": "XIV asr o'rtasidan — aniq joylashuvi tarixchilar orasida munozarali"
      }
    },
    {
      "type": "Feature",
      "geometry": {
        "type": "Point",
        "coordinates": [
          35.38,
          45.03
        ]
      },
      "properties": {
        "stateId": "oltin-orda",
        "year": 1350,
        "kind": "city",
        "name": "Kaffa",
        "notes": "Genuya savdo koloniyasi — Oltin O'rda hududida, lekin alohida maqomda"
      }
    },
    {
      "type": "Feature",
      "geometry": {
        "type": "Point",
        "coordinates": [
          39.42,
          47.1
        ]
      },
      "properties": {
        "stateId": "oltin-orda",
        "year": 1350,
        "kind": "city",
        "name": "Tana",
        "notes": "Venetsiya savdo koloniyasi — alohida maqomda"
      }
    },
    {
      "type": "Feature",
      "geometry": {
        "type": "Point",
        "coordinates": [
          31.28,
          58.52
        ]
      },
      "properties": {
        "stateId": "oltin-orda",
        "year": 1350,
        "kind": "city",
        "name": "Novgorod",
        "notes": "Faqat o'lpon to'lagan, bevosita boshqarilmagan"
      }
    }
  ]
}