{
  "type": "FeatureCollection",
  "features": [
    {
      "type": "Feature",
      "geometry": {
        "type": "Polygon",
        "coordinates": [
          [
            [
              63.5,
              39.25
            ],
            [
              63.875,
              38.875
            ],
            [
              64.625,
              38.625
            ],
            [
              65.375,
              38.25
            ],
            [
              66.125,
              37.75
            ],
            [
              66.875,
              37.45
            ],
            [
              67.625,
              37.349999999999994
            ],
            [
              68.375,
              37.474999999999994
            ],
            [
              69.125,
              37.825
            ],
            [
              70,
              38.125
            ],
            [
              71,
              38.375
            ],
            [
              72,
              38.5
            ],
            [
              73,
              38.5
            ],
            [
              73.875,
              38.25
            ],
            [
              74.625,
              37.75
            ],
            [
              75.625,
              37.375
            ],
            [
              79.375,
              36.625
            ],
            [
              80.5,
              36.625
            ],
            [
              81.5,
              36.875
            ],
            [
              81.625,
              37.5
            ],
            [
              80.875,
              38.5
            ],
            [
              80.75,
              39.375
            ],
            [
              81.25,
              40.125
            ],
            [
              81.25,
              40.75
            ],
            [
              78.75,
              43.25
            ],
            [
              77.875,
              43.75
            ],
            [
              76.625,
              44.25
            ],
            [
              75.375,
              44.375
            ],
            [
              74.125,
              44.125
            ],
            [
              72.75,
              44
            ],
            [
              71.25,
              44
            ],
            [
              70,
              43.875
            ],
            [
              69,
              43.625
            ],
            [
              68,
              43.125
            ],
            [
              67,
              42.375
            ],
            [
              66,
              41.875
            ],
            [
              65,
              41.625
            ],
            [
              64.25,
              41.125
            ],
            [
              63.75,
              40.375
            ],
            [
              63.5,
              39.75
            ],
            [
              63.5,
              39.25
            ]
          ]
        ]
      },
      "properties": {
        "stateId": "qoraxoniylar",
        "year": 1040,
        "zone": "markaz",
        "confidence": "ortacha",
        "sourceIds": [
          "golden-1992",
          "bosworth-1996"
        ],
        "notes": "1040-yil — bo'linishdan oldingi yagona davlat sifatida ko'rsatilgan: Movarounnahr, Farg'ona, Shosh, Yettisuv, Qashg'ar va Xo'tan. Sharqiy chegaradan (Oqsuv atrofi) sharqda Qocho uyg'ur davlati boshlanadi. Halqa 2026-10-02 da qayta chizildi: nuqtalar tartiblandi, zichlashtirildi va quruqlik chizig'iga kesiladi; sahifa darajasida manbaga solishtirilmagan — ekspert tekshiruvi kerak.",
        "verified": false
      }
    },
    {
      "type": "Feature",
      "geometry": {
        "type": "Point",
        "coordinates": [
          75.24,
          42.75
        ]
      },
      "properties": {
        "stateId": "qoraxoniylar",
        "year": 1040,
        "kind": "capital",
        "name": "Bolasog'un",
        "notes": null
      }
    },
    {
      "type": "Feature",
      "geometry": {
        "type": "Point",
        "coordinates": [
          75.99,
          39.47
        ]
      },
      "properties": {
        "stateId": "qoraxoniylar",
        "year": 1040,
        "kind": "city",
        "name": "Qashg'ar",
        "notes": null
      }
    },
    {
      "type": "Feature",
      "geometry": {
        "type": "Point",
        "coordinates": [
          66.97,
          39.65
        ]
      },
      "properties": {
        "stateId": "qoraxoniylar",
        "year": 1040,
        "kind": "city",
        "name": "Samarqand",
        "notes": "1040-yildan keyin G'arbiy xonlik poytaxti"
      }
    }
  ]
}