{
  "type": "FeatureCollection",
  "features": [
    {
      "type": "Feature",
      "geometry": {
        "type": "MultiPolygon",
        "coordinates": [
          [
            [
              [
                53.01953019530197,
                39.052024747434984
              ],
              [
                53.04473044730449,
                38.89752044004817
              ],
              [
                53.09873098730989,
                38.75690416029161
              ],
              [
                53.109531095310956,
                38.803776253543816
              ],
              [
                53.05553055530555,
                39.038136719804726
              ],
              [
                53.091530915309164,
                39.09368883032582
              ],
              [
                53.05193051930519,
                39.09716083723339
              ],
              [
                53.01953019530197,
                39.052024747434984
              ]
            ]
          ],
          [
            [
              [
                35.25,
                31.75
              ],
              [
                35.349999999999994,
                31.25
              ],
              [
                35.849999999999994,
                31.1
              ],
              [
                36.75,
                31.299999999999997
              ],
              [
                37.6,
                31.799999999999997
              ],
              [
                38.4,
                32.6
              ],
              [
                39.349999999999994,
                33.1
              ],
              [
                40.45,
                33.3
              ],
              [
                41.5,
                33
              ],
              [
                42.5,
                32.2
              ],
              [
                43.5,
                31.6
              ],
              [
                44.5,
                31.2
              ],
              [
                45.4,
                31
              ],
              [
                46.2,
                31
              ],
              [
                47.1,
                30.725
              ],
              [
                48.1,
                30.174999999999997
              ],
              [
                48.56664049117379,
                29.967604226144978
              ],
              [
                48.59508595085953,
                29.974462687595647
              ],
              [
                48.67068670686709,
                30.028278794662967
              ],
              [
                48.83268832688327,
                30.035222808478096
              ],
              [
                48.868688686886884,
                30.062998863738656
              ],
              [
                48.919089190891924,
                30.120286977713548
              ],
              [
                48.90828908289083,
                30.24180721947846
              ],
              [
                48.89028890288904,
                30.326871388713897
              ],
              [
                48.91548915489156,
                30.398047530319076
              ],
              [
                49.037890378903796,
                30.45012763393261
              ],
              [
                49.001890018900184,
                30.505679744453715
              ],
              [
                49.13149131491315,
                30.509151751361273
              ],
              [
                49.22509225092253,
                30.472695678831798
              ],
              [
                49.246692466924685,
                30.41193555794935
              ],
              [
                49.18909189091892,
                30.375479485419874
              ],
              [
                49.095490954909565,
                30.40672754758799
              ],
              [
                49.04869048690489,
                30.398047530319076
              ],
              [
                49.001890018900184,
                30.373743481966088
              ],
              [
                49.027090270902704,
                30.33381540252904
              ],
              [
                49.05589055890559,
                30.307775350722267
              ],
              [
                49.430294302943025,
                30.13070299843625
              ],
              [
                49.556295562955626,
                30.028278794662967
              ],
              [
                49.98469984699847,
                30.208823153856557
              ],
              [
                50.07110071100712,
                30.19840713313384
              ],
              [
                50.12870128701289,
                30.047374832654597
              ],
              [
                50.168301683016836,
                29.920646580528327
              ],
              [
                50.22950229502297,
                29.87203848382235
              ],
              [
                50.38790387903879,
                29.679342100452274
              ],
              [
                50.54270542705427,
                29.547405837964646
              ],
              [
                50.65070650706508,
                29.420677585838376
              ],
              [
                50.66870668706687,
                29.339085423510497
              ],
              [
                50.64710647106472,
                29.212357171384227
              ],
              [
                50.6759067590676,
                29.14638904014042
              ],
              [
                50.79470794707947,
                29.116876981426074
              ],
              [
                50.87750877508776,
                29.063060874358754
              ],
              [
                50.87750877508776,
                29.00403675693009
              ],
              [
                50.84150841508415,
                28.92765260496357
              ],
              [
                50.86670866708667,
                28.870364490988678
              ],
              [
                51.021510215102154,
                28.78182831484567
              ],
              [
                51.06111061110613,
                28.726276204324563
              ],
              [
                51.09351093510935,
                28.512747779509056
              ],
              [
                51.12951129511296,
                28.434627624088762
              ],
              [
                51.27711277112772,
                28.21936319581947
              ],
              [
                51.27711277112772,
                28.13082701967646
              ],
              [
                51.51831518315183,
                27.910354581045823
              ],
              [
                51.59031590315905,
                27.863482487793647
              ],
              [
                51.66591665916661,
                27.844386449802016
              ],
              [
                51.84231842318425,
                27.847858456709588
              ],
              [
                52.02952029520296,
                27.8235544083566
              ],
              [
                52.19152191521917,
                27.717658197675746
              ],
              [
                52.47592475924759,
                27.616969997356236
              ],
              [
                52.60192601926019,
                27.493713752137538
              ],
              [
                52.6379263792638,
                27.391289548364256
              ],
              [
                52.69192691926921,
                27.32358541366665
              ],
              [
                52.983529835298356,
                27.141305051019273
              ],
              [
                53.339933399334,
                27.004160778170302
              ],
              [
                53.45513455134551,
                26.94340065728784
              ],
              [
                53.50553505535055,
                26.851392474237258
              ],
              [
                53.61513260467565,
                26.783442537973883
              ],
              [
                53.75,
                26.724999999999998
              ],
              [
                53.77999870635315,
                26.714322494348878
              ],
              [
                53.822338223382246,
                26.707304187573143
              ],
              [
                54.07074070740708,
                26.73160823592613
              ],
              [
                54.24714247142472,
                26.696888166850428
              ],
              [
                54.52074520745208,
                26.58925595271579
              ],
              [
                54.64314643146432,
                26.50939979384171
              ],
              [
                54.75834758347585,
                26.505927786934137
              ],
              [
                54.89514895148952,
                26.556271887093885
              ],
              [
                55.154351543515446,
                26.724664222110988
              ],
              [
                55.294752947529474,
                26.78542434299345
              ],
              [
                55.42435424354244,
                26.76980031190938
              ],
              [
                55.51795517955179,
                26.83056043279184
              ],
              [
                55.589955899559016,
                26.932984636565138
              ],
              [
                55.65115651156512,
                26.978120726363528
              ],
              [
                55.9427594275943,
                27.037144843792206
              ],
              [
                56.11916119161194,
                27.14304105447306
              ],
              [
                56.284762847628485,
                27.18991314772525
              ],
              [
                56.35676356763568,
                27.20032916844795
              ],
              [
                56.727567275672754,
                27.127417023389
              ],
              [
                56.81396813968141,
                27.08922494740574
              ],
              [
                56.91116911169112,
                26.993744757447587
              ],
              [
                56.98316983169832,
                26.905208581304578
              ],
              [
                57.03717037170372,
                26.80104837407751
              ],
              [
                57.073170731707336,
                26.679528132312583
              ],
              [
                57.105571055710556,
                26.372255520992724
              ],
              [
                57.20277202772027,
                26.15872709617723
              ],
              [
                57.206372063720636,
                26.037206854412304
              ],
              [
                57.26037260372604,
                25.919158619554963
              ],
              [
                57.27852094031119,
                25.88832013760652
              ],
              [
                57.699999999999996,
                25.950000000000003
              ],
              [
                58.300000000000004,
                26.65
              ],
              [
                59.1,
                27.65
              ],
              [
                60.1,
                28.950000000000003
              ],
              [
                60.85,
                30.250000000000004
              ],
              [
                61.35,
                31.550000000000004
              ],
              [
                62.1,
                32.675000000000004
              ],
              [
                63.1,
                33.625
              ],
              [
                64.30000000000001,
                34.325
              ],
              [
                65.7,
                34.775
              ],
              [
                66.95,
                35.3
              ],
              [
                68.05,
                35.900000000000006
              ],
              [
                68.32499999999999,
                36.45
              ],
              [
                67.775,
                36.95
              ],
              [
                67.025,
                37.35
              ],
              [
                66.07499999999999,
                37.65
              ],
              [
                65.19999999999999,
                38.199999999999996
              ],
              [
                64.4,
                39
              ],
              [
                63.65,
                39.8
              ],
              [
                62.95,
                40.6
              ],
              [
                62.2,
                41.45
              ],
              [
                61.4,
                42.349999999999994
              ],
              [
                60.375,
                42.99999999999999
              ],
              [
                59.125,
                43.400000000000006
              ],
              [
                57.875,
                43.650000000000006
              ],
              [
                56.625,
                43.74999999999999
              ],
              [
                55.4,
                43.39999999999999
              ],
              [
                54.2,
                42.6
              ],
              [
                53.47348365009947,
                42.11565576673298
              ],
              [
                53.494734947349485,
                42.11954285027227
              ],
              [
                53.62433624336245,
                42.13690288481013
              ],
              [
                53.753937539375414,
                42.12995887099498
              ],
              [
                53.804338043380454,
                42.117806846818496
              ],
              [
                53.847538475384766,
                42.09176679501172
              ],
              [
                53.955539555395575,
                41.8678223494735
              ],
              [
                53.99513995139952,
                41.772342159515375
              ],
              [
                54.038340383403835,
                41.643877903935305
              ],
              [
                54.0959409594096,
                41.51888565526281
              ],
              [
                54.182341823418255,
                41.4320854825736
              ],
              [
                54.283142831428336,
                41.36438134787599
              ],
              [
                54.592745927459276,
                41.19425300940512
              ],
              [
                54.6719467194672,
                41.121340864346166
              ],
              [
                54.70434704347045,
                41.07099676418642
              ],
              [
                54.71874718747188,
                41.01370865021153
              ],
              [
                54.72234722347224,
                40.95121252587526
              ],
              [
                54.71154711547118,
                40.89045240499283
              ],
              [
                54.68634686346866,
                40.87309237045497
              ],
              [
                54.65754657546577,
                40.85920434282468
              ],
              [
                54.5459454594546,
                40.83142828756414
              ],
              [
                54.373143731437324,
                40.8713563670012
              ],
              [
                54.31914319143192,
                40.83490029447171
              ],
              [
                54.33714337143371,
                40.76546015632033
              ],
              [
                54.37674376743769,
                40.69254801126138
              ],
              [
                54.32994329943301,
                40.68907600435381
              ],
              [
                54.283142831428336,
                40.69428401471515
              ],
              [
                54.19314193141932,
                40.720324066521925
              ],
              [
                54.088740887408875,
                40.70643603889167
              ],
              [
                53.86913869138692,
                40.649147924916775
              ],
              [
                53.76473764737648,
                40.666507959454606
              ],
              [
                53.69273692736928,
                40.7463641183287
              ],
              [
                53.61353613536136,
                40.81927626338765
              ],
              [
                53.519935199352005,
                40.83142828756414
              ],
              [
                53.42273422734229,
                40.793236211580876
              ],
              [
                53.33273332733327,
                40.78282019085819
              ],
              [
                53.192331923319244,
                40.808860242664935
              ],
              [
                53.14553145531457,
                40.82448427374899
              ],
              [
                53.059130591305916,
                40.89045240499283
              ],
              [
                52.99792997929981,
                40.95989254314421
              ],
              [
                52.94392943929441,
                41.0380126985645
              ],
              [
                52.889928899289,
                40.862676349732254
              ],
              [
                52.85032850328503,
                40.685603997446236
              ],
              [
                52.78552785527856,
                40.54672372114348
              ],
              [
                52.73512735127352,
                40.39916342757181
              ],
              [
                52.74592745927461,
                40.22035507183199
              ],
              [
                52.80352803528035,
                40.05369874026866
              ],
              [
                52.89712897128973,
                39.91308246051213
              ],
              [
                52.965529655296564,
                39.833226301638035
              ],
              [
                53.033930339303396,
                39.77420218420937
              ],
              [
                52.95112951129511,
                39.89572242597427
              ],
              [
                52.98712987129872,
                39.98773060902485
              ],
              [
                53.13833138331384,
                39.979050591755936
              ],
              [
                53.28953289532896,
                39.958218550310534
              ],
              [
                53.40473404734047,
                39.959954553764305
              ],
              [
                53.45513455134551,
                39.940858515772675
              ],
              [
                53.48753487534876,
                39.90961045360456
              ],
              [
                53.45873458734587,
                39.831490298184235
              ],
              [
                53.45153451534517,
                39.7481621324026
              ],
              [
                53.47313473134733,
                39.668305973528504
              ],
              [
                53.53433534335343,
                39.64226592172173
              ],
              [
                53.58113581135811,
                39.60754585264604
              ],
              [
                53.602736027360294,
                39.54678573176358
              ],
              [
                53.49833498334985,
                39.53289770413332
              ],
              [
                53.39033390333904,
                39.53636971104089
              ],
              [
                53.30393303933039,
                39.55720175248629
              ],
              [
                53.235532355323556,
                39.60928185609984
              ],
              [
                53.12393123931241,
                39.432209503813795
              ],
              [
                53.12393123931241,
                39.34714533457836
              ],
              [
                53.15633156331563,
                39.26555317225049
              ],
              [
                53.20313203132031,
                39.31763327586401
              ],
              [
                53.267932679326805,
                39.341937324217014
              ],
              [
                53.33633336333364,
                39.340201320763214
              ],
              [
                53.47673476734769,
                39.305481251687524
              ],
              [
                53.5379353793538,
                39.27423318951941
              ],
              [
                53.61713617136172,
                39.215209072090744
              ],
              [
                53.703537035370374,
                39.21000106172937
              ],
              [
                53.710737107371074,
                39.15271294775448
              ],
              [
                53.72513725137253,
                39.10236884759473
              ],
              [
                53.81513815138152,
                39.017304678359295
              ],
              [
                53.86913869138692,
                38.94960054366172
              ],
              [
                53.887138871388714,
                38.86453637442625
              ],
              [
                53.872738727387286,
                38.74128012920755
              ],
              [
                53.85113851138513,
                38.621495890896426
              ],
              [
                53.84033840338404,
                38.51559968021556
              ],
              [
                53.85113851138513,
                38.40623146262715
              ],
              [
                53.854738547385494,
                38.28644722431602
              ],
              [
                53.82593825938261,
                38.04687874769374
              ],
              [
                53.822338223382246,
                37.92709450938261
              ],
              [
                53.847538475384766,
                37.6701659982225
              ],
              [
                53.89793897938981,
                37.41323748706239
              ],
              [
                53.9159391593916,
                37.34379734891101
              ],
              [
                53.95193951939521,
                37.18234902770904
              ],
              [
                54.01674016740168,
                36.953196571809485
              ],
              [
                54.02394023940241,
                36.90111646819595
              ],
              [
                54.01674016740168,
                36.84903636458242
              ],
              [
                53.969939699397,
                36.817788302414286
              ],
              [
                53.905139051390535,
                36.81258029205294
              ],
              [
                53.76833768337684,
                36.817788302414286
              ],
              [
                53.678336783367854,
                36.852508371489975
              ],
              [
                53.82593825938261,
                36.88202043020432
              ],
              [
                53.9159391593916,
                36.93062852691028
              ],
              [
                53.76833768337684,
                36.93062852691028
              ],
              [
                53.37233372333725,
                36.86813240257405
              ],
              [
                52.19152191521917,
                36.62161991213664
              ],
              [
                51.76311763117633,
                36.614675898321494
              ],
              [
                51.11871118711187,
                36.74314015390155
              ],
              [
                50.9279092790928,
                36.81084428859916
              ],
              [
                50.53190531905321,
                37.01395669269195
              ],
              [
                50.33750337503375,
                37.149364962087134
              ],
              [
                50.21510215102151,
                37.34032534200344
              ],
              [
                50.175501755017564,
                37.380253421440486
              ],
              [
                50.12870128701289,
                37.406293473247246
              ],
              [
                49.98109981099813,
                37.44448554923051
              ],
              [
                49.72549725497257,
                37.48094162175998
              ],
              [
                49.469894698947,
                37.49656565284404
              ],
              [
                49.372693726937285,
                37.51913369774324
              ],
              [
                49.171091710917125,
                37.60072586007112
              ],
              [
                49.08109081090811,
                37.668429994768715
              ],
              [
                49.01629016290164,
                37.776062208903355
              ],
              [
                48.95868958689587,
                37.89063843685314
              ],
              [
                48.926289262892624,
                38.01563068552562
              ],
              [
                48.901089010890104,
                38.14409494110569
              ],
              [
                48.87228872288725,
                38.39234343499686
              ],
              [
                48.868688686886884,
                38.43574352134149
              ],
              [
                48.850688506885064,
                38.8159282777203
              ],
              [
                48.85428854288543,
                38.838496322619505
              ],
              [
                48.926289262892624,
                38.961752567838204
              ],
              [
                48.962289622896236,
                39.07806479924176
              ],
              [
                49.012690126901276,
                39.13361690976288
              ],
              [
                49.10989109891099,
                39.0850088130569
              ],
              [
                49.10989109891099,
                39.02945670253578
              ],
              [
                49.120691206912085,
                39.00341665072904
              ],
              [
                49.1638916389164,
                39.02945670253578
              ],
              [
                49.19989199892001,
                39.072856788880415
              ],
              [
                49.26829268292684,
                39.28464921024212
              ],
              [
                49.322293222932245,
                39.32804929658673
              ],
              [
                49.36189361893619,
                39.34888133803216
              ],
              [
                49.36909369093692,
                39.399225438191905
              ],
              [
                49.32589325893261,
                39.50164964196517
              ],
              [
                49.32589325893261,
                39.60754585264604
              ],
              [
                49.4158941589416,
                39.84017031545318
              ],
              [
                49.47709477094773,
                40.086682805890575
              ],
              [
                49.55269552695529,
                40.194315020025215
              ],
              [
                49.6678966789668,
                40.249867130546335
              ],
              [
                49.790297902979034,
                40.288059206529596
              ],
              [
                49.919899198992,
                40.31583526179014
              ],
              [
                50.143101431014315,
                40.322779275605285
              ],
              [
                50.36630366303663,
                40.27937918926065
              ],
              [
                50.30510305103053,
                40.413051455202066
              ],
              [
                50.24750247502476,
                40.46165955190804
              ],
              [
                50.18270182701829,
                40.505059638252646
              ],
              [
                50.117901179011795,
                40.53457169696699
              ],
              [
                50.06822930011009,
                40.550996400019145
              ],
              [
                49.775000000000006,
                40.5
              ],
              [
                48.900000000000006,
                40.65
              ],
              [
                48.3,
                41.15
              ],
              [
                47.65,
                41.375
              ],
              [
                46.95,
                41.324999999999996
              ],
              [
                46.300000000000004,
                41.199999999999996
              ],
              [
                45.699999999999996,
                41
              ],
              [
                44.9,
                40.949999999999996
              ],
              [
                43.9,
                41.050000000000004
              ],
              [
                42.9,
                40.975
              ],
              [
                41.9,
                40.725
              ],
              [
                41.15,
                40.325
              ],
              [
                40.65,
                39.775
              ],
              [
                40.175,
                39.225
              ],
              [
                39.725,
                38.675
              ],
              [
                39.125,
                38.175
              ],
              [
                38.375,
                37.725
              ],
              [
                37.7,
                37.375
              ],
              [
                37.099999999999994,
                37.125
              ],
              [
                36.65,
                36.85
              ],
              [
                36.35,
                36.55
              ],
              [
                36.150000000000006,
                36.15
              ],
              [
                36.05,
                35.65
              ],
              [
                36.025,
                35.175
              ],
              [
                36.075,
                34.725
              ],
              [
                35.975,
                34.175
              ],
              [
                35.725,
                33.525000000000006
              ],
              [
                35.5,
                32.900000000000006
              ],
              [
                35.300000000000004,
                32.3
              ],
              [
                35.25,
                31.75
              ]
            ]
          ],
          [
            [
              [
                52.60557885551279,
                41.537052570341864
              ],
              [
                52.60912609126092,
                41.52930167598552
              ],
              [
                52.74592745927461,
                41.36611735132979
              ],
              [
                52.82512825128251,
                41.23070908193458
              ],
              [
                52.85032850328503,
                41.19946101976646
              ],
              [
                52.86112861128612,
                41.209877040489175
              ],
              [
                52.82872828728287,
                41.34181330297679
              ],
              [
                52.882728827288275,
                41.61436584522096
              ],
              [
                52.882728827288275,
                41.65255792120422
              ],
              [
                52.837447686025605,
                41.691631790683736
              ],
              [
                52.60557885551279,
                41.537052570341864
              ]
            ]
          ],
          [
            [
              [
                56.04673816969199,
                25.97331360836083
              ],
              [
                56.38546970278917,
                25.87987042681678
              ],
              [
                56.417964179641814,
                26.108382996017482
              ],
              [
                56.417964179641814,
                26.207335192883193
              ],
              [
                56.42876428764288,
                26.327119431194333
              ],
              [
                56.41436414364145,
                26.351423479547307
              ],
              [
                56.37836378363784,
                26.356631489908665
              ],
              [
                56.34596345963462,
                26.313231403564046
              ],
              [
                56.30636306363064,
                26.235111248143753
              ],
              [
                56.22716227162272,
                26.21948721705968
              ],
              [
                56.19836198361983,
                26.229903237782395
              ],
              [
                56.16596165961661,
                26.207335192883193
              ],
              [
                56.07956079560796,
                26.063246906219078
              ],
              [
                56.0759607596076,
                26.052830885496377
              ],
              [
                56.04673816969199,
                25.97331360836083
              ]
            ]
          ],
          [
            [
              [
                55.294752947529474,
                26.63960005287555
              ],
              [
                55.312753127531295,
                26.59272795962336
              ],
              [
                55.34155341553415,
                26.585783945808217
              ],
              [
                55.42435424354244,
                26.58231193890066
              ],
              [
                55.54315543155431,
                26.61703200797635
              ],
              [
                55.67635676356764,
                26.686472146127727
              ],
              [
                55.748357483574836,
                26.691680156489085
              ],
              [
                55.849158491584916,
                26.73160823592613
              ],
              [
                55.892358923589256,
                26.73160823592613
              ],
              [
                55.95355953559536,
                26.700360173758
              ],
              [
                56.09396093960942,
                26.80104837407751
              ],
              [
                56.18756187561877,
                26.920832612388637
              ],
              [
                56.28116281162812,
                26.95208067455677
              ],
              [
                56.21276212762129,
                27.002424774716516
              ],
              [
                56.07236072360723,
                26.983328736724886
              ],
              [
                55.906759067590684,
                26.910416591665935
              ],
              [
                55.75915759157593,
                26.94687266419541
              ],
              [
                55.748357483574836,
                26.931248633111352
              ],
              [
                55.78435784357845,
                26.856600484598616
              ],
              [
                55.76275762757629,
                26.81146439480021
              ],
              [
                55.53235532355325,
                26.710776194480715
              ],
              [
                55.34875348753488,
                26.648280070144466
              ],
              [
                55.294752947529474,
                26.656960087413395
              ],
              [
                55.294752947529474,
                26.63960005287555
              ]
            ]
          ]
        ]
      },
      "properties": {
        "stateId": "saljuqiylar",
        "year": 1092,
        "zone": "markaz",
        "confidence": "ortacha",
        "sourceIds": [
          "golden-1992",
          "findley-2005",
          "peacock-2015"
        ],
        "notes": "Malikshoh vafoti (1092) yilidagi Buyuk Saljuqiylar hududi: Xorazm, Xuroson, Eron, Iroq, Jazira, Suriya va Falastin, Ozarbayjon, Armaniston. Kirmon saljuqiylari markazga kiritilgan. Halqa 2026-10-02 da qayta chizildi: nuqtalar tartiblandi, zichlashtirildi va quruqlik chizig'iga kesiladi; sahifa darajasida manbaga solishtirilmagan — ekspert tekshiruvi kerak.",
        "verified": false
      }
    },
    {
      "type": "Feature",
      "geometry": {
        "type": "Polygon",
        "coordinates": [
          [
            [
              29.4,
              39.25
            ],
            [
              29.799999999999997,
              38.574999999999996
            ],
            [
              30.6,
              38.125
            ],
            [
              31.5,
              37.75
            ],
            [
              32.5,
              37.449999999999996
            ],
            [
              33.6,
              37.3
            ],
            [
              34.8,
              37.3
            ],
            [
              35.9,
              37.55
            ],
            [
              36.9,
              38.05
            ],
            [
              37.15,
              38.625
            ],
            [
              36.65,
              39.275000000000006
            ],
            [
              35.8,
              39.85
            ],
            [
              34.6,
              40.35
            ],
            [
              33.4,
              40.675000000000004
            ],
            [
              32.2,
              40.824999999999996
            ],
            [
              31.050000000000004,
              40.824999999999996
            ],
            [
              29.949999999999996,
              40.675000000000004
            ],
            [
              29.4,
              40.150000000000006
            ],
            [
              29.4,
              39.25
            ]
          ]
        ]
      },
      "properties": {
        "stateId": "saljuqiylar",
        "year": 1092,
        "zone": "vassal",
        "confidence": "past",
        "sourceIds": [
          "golden-1992",
          "findley-2005",
          "peacock-2015"
        ],
        "notes": "Rum saljuqiylari (Nikeya, 1081–97) — yarim mustaqil. Halqa 2026-10-02 da qayta chizildi: nuqtalar tartiblandi, zichlashtirildi va quruqlik chizig'iga kesiladi; sahifa darajasida manbaga solishtirilmagan — ekspert tekshiruvi kerak.",
        "verified": false
      }
    },
    {
      "type": "Feature",
      "geometry": {
        "type": "Polygon",
        "coordinates": [
          [
            [
              63.625,
              40.05
            ],
            [
              63.875,
              39.35
            ],
            [
              64.45,
              38.75
            ],
            [
              65.35,
              38.25
            ],
            [
              66.25,
              37.9
            ],
            [
              67.14999999999999,
              37.7
            ],
            [
              67.94999999999999,
              37.875
            ],
            [
              68.65,
              38.425000000000004
            ],
            [
              69.5,
              38.900000000000006
            ],
            [
              70.5,
              39.3
            ],
            [
              71.4,
              39.75
            ],
            [
              72.19999999999999,
              40.25
            ],
            [
              72.35,
              40.75
            ],
            [
              71.85,
              41.25
            ],
            [
              71.1,
              41.725
            ],
            [
              70.1,
              42.175
            ],
            [
              69.07499999999999,
              42.25
            ],
            [
              68.025,
              41.949999999999996
            ],
            [
              66.875,
              41.8
            ],
            [
              65.625,
              41.8
            ],
            [
              64.625,
              41.449999999999996
            ],
            [
              63.875,
              40.75
            ],
            [
              63.625,
              40.05
            ]
          ]
        ]
      },
      "properties": {
        "stateId": "saljuqiylar",
        "year": 1092,
        "zone": "vassal",
        "confidence": "past",
        "sourceIds": [
          "golden-1992",
          "findley-2005",
          "peacock-2015"
        ],
        "notes": "Movarounnahr Qoraxoniylari — nomigagina tobe, ma'muriy jihatdan mustaqil. Halqa 2026-10-02 da qayta chizildi: nuqtalar tartiblandi, zichlashtirildi va quruqlik chizig'iga kesiladi; sahifa darajasida manbaga solishtirilmagan — ekspert tekshiruvi kerak.",
        "verified": false
      }
    },
    {
      "type": "Feature",
      "geometry": {
        "type": "Polygon",
        "coordinates": [
          [
            [
              41.664577152542016,
              42.148590508473404
            ],
            [
              41.66501665016651,
              42.14731890553281
            ],
            [
              41.76221762217622,
              41.970246553246795
            ],
            [
              41.76221762217622,
              41.88518238401136
            ],
            [
              41.75861758617586,
              41.81747824931375
            ],
            [
              41.71340125209683,
              41.728898904415274
            ],
            [
              41.975,
              41.5
            ],
            [
              42.925,
              41.300000000000004
            ],
            [
              43.9,
              41.2
            ],
            [
              44.9,
              41.2
            ],
            [
              45.65,
              41.35
            ],
            [
              46.15,
              41.65
            ],
            [
              46.099999999999994,
              42
            ],
            [
              45.50000000000001,
              42.400000000000006
            ],
            [
              44.775000000000006,
              42.675000000000004
            ],
            [
              43.925,
              42.824999999999996
            ],
            [
              43.075,
              42.824999999999996
            ],
            [
              42.224999999999994,
              42.675000000000004
            ],
            [
              41.724999999999994,
              42.35
            ],
            [
              41.664577152542016,
              42.148590508473404
            ]
          ]
        ]
      },
      "properties": {
        "stateId": "saljuqiylar",
        "year": 1092,
        "zone": "vassal",
        "confidence": "past",
        "sourceIds": [
          "golden-1992",
          "findley-2005",
          "peacock-2015"
        ],
        "notes": "Gruziya — o'lpon to'lagan. Halqa 2026-10-02 da qayta chizildi: nuqtalar tartiblandi, zichlashtirildi va quruqlik chizig'iga kesiladi; sahifa darajasida manbaga solishtirilmagan — ekspert tekshiruvi kerak.",
        "verified": false
      }
    },
    {
      "type": "Feature",
      "geometry": {
        "type": "MultiPolygon",
        "coordinates": [
          [
            [
              [
                35.35,
                27.85
              ],
              [
                35.35220095212197,
                27.821387622414413
              ],
              [
                35.42255422554226,
                27.733282228759805
              ],
              [
                35.580955809558105,
                27.432953631255074
              ],
              [
                35.764557645576474,
                27.259353285876628
              ],
              [
                35.8509585095851,
                27.07012890941411
              ],
              [
                36.0309603096031,
                26.88090453295159
              ],
              [
                36.092160921609235,
                26.76632830500182
              ],
              [
                36.250562505625055,
                26.594463963077146
              ],
              [
                36.51696516965171,
                26.10491098910991
              ],
              [
                36.67536675366753,
                26.03894285786609
              ],
              [
                36.704167041670416,
                25.903534588470905
              ],
              [
                36.761767617676185,
                25.75076628453786
              ],
              [
                36.8589685896859,
                25.691742167109183
              ],
              [
                36.92016920169203,
                25.641398066949435
              ],
              [
                37.15057150571508,
                25.290725369284957
              ],
              [
                37.21897218972191,
                25.150109089528414
              ],
              [
                37.24417244172443,
                25.07372493756189
              ],
              [
                37.265772657726586,
                24.960884713065894
              ],
              [
                37.21897218972191,
                24.87408454037667
              ],
              [
                37.179371793717934,
                24.82026843330935
              ],
              [
                37.33777337773378,
                24.615420025762774
              ],
              [
                37.431374313743135,
                24.459179714922172
              ],
              [
                37.54297542975431,
                24.29078737990507
              ],
              [
                37.63657636576366,
                24.276899352274782
              ],
              [
                37.71217712177122,
                24.27516334882101
              ],
              [
                37.82017820178203,
                24.188363176131773
              ],
              [
                37.92097920979211,
                24.1848911692242
              ],
              [
                37.978579785797876,
                24.124131048341752
              ],
              [
                38.09738097380975,
                24.05816291709793
              ],
              [
                38.28818288182882,
                23.910602623526245
              ],
              [
                38.46458464584646,
                23.71269822979481
              ],
              [
                38.54378543785438,
                23.558193922407995
              ],
              [
                38.705787057870594,
                23.30473741815544
              ],
              [
                38.756187561875635,
                23.193633197113243
              ],
              [
                38.79578795787958,
                23.04780890699533
              ],
              [
                38.83538835388356,
                22.988784789566665
              ],
              [
                38.939789397893975,
                22.881152575432026
              ],
              [
                38.882188821888235,
                22.882888578885797
              ],
              [
                38.939789397893975,
                22.804768423465504
              ],
              [
                39.008190081900835,
                22.770048354389814
              ],
              [
                39.00099000990011,
                22.69887221278465
              ],
              [
                39.06219062190624,
                22.592976002103782
              ],
              [
                39.09459094590946,
                22.393335604918562
              ],
              [
                39.06939069390694,
                22.294383408052852
              ],
              [
                39.033390333903355,
                22.204111228456057
              ],
              [
                39.02259022590226,
                22.033982889985168
              ],
              [
                38.98658986589868,
                21.881214586052124
              ],
              [
                39.02979029790299,
                21.77531837537127
              ],
              [
                39.090990909909095,
                21.66421415432906
              ],
              [
                39.148591485914864,
                21.51838986421116
              ],
              [
                39.15219152191523,
                21.43332569497572
              ],
              [
                39.09459094590946,
                21.31006944975701
              ],
              [
                39.274592745927464,
                20.973284779722817
              ],
              [
                39.49059490594908,
                20.737188310008122
              ],
              [
                39.61299612996132,
                20.518451874831257
              ],
              [
                39.728197281972825,
                20.3899876192512
              ],
              [
                39.88299882998831,
                20.292771425839277
              ],
              [
                40.081000810008106,
                20.266731374032503
              ],
              [
                40.30401341234454,
                20.114624157083636
              ],
              [
                40.725,
                20.275
              ],
              [
                40.975,
                21.025
              ],
              [
                40.825,
                22.15
              ],
              [
                40.275,
                23.65
              ],
              [
                39.5,
                25.049999999999997
              ],
              [
                38.5,
                26.35
              ],
              [
                37.6,
                27.25
              ],
              [
                36.8,
                27.75
              ],
              [
                36.05,
                27.95
              ],
              [
                35.35,
                27.85
              ]
            ]
          ],
          [
            [
              [
                36.502565025650256,
                25.644870073857007
              ],
              [
                36.53136531365314,
                25.601469987512388
              ],
              [
                36.72216722167224,
                25.533765852814795
              ],
              [
                36.76536765367655,
                25.500781787192892
              ],
              [
                36.8049680496805,
                25.45043768703313
              ],
              [
                36.87696876968769,
                25.382733552335537
              ],
              [
                36.90216902169021,
                25.382733552335537
              ],
              [
                36.95616956169562,
                25.413981614503655
              ],
              [
                36.9237692376924,
                25.426133638680156
              ],
              [
                36.74736747367476,
                25.558069901167784
              ],
              [
                36.58896588965891,
                25.62056602550402
              ],
              [
                36.552965529655296,
                25.644870073857007
              ],
              [
                36.534965349653504,
                25.68827016020161
              ],
              [
                36.502565025650256,
                25.644870073857007
              ]
            ]
          ],
          [
            [
              [
                36.54216542165423,
                25.7351422534538
              ],
              [
                36.585365853658544,
                25.698686180924327
              ],
              [
                36.596165961659636,
                25.7125742085546
              ],
              [
                36.596165961659636,
                25.7351422534538
              ],
              [
                36.578165781657816,
                25.795902374336265
              ],
              [
                36.58176581765818,
                25.854926491764928
              ],
              [
                36.545765457654596,
                25.811526405420324
              ],
              [
                36.54216542165423,
                25.7351422534538
              ]
            ]
          ]
        ]
      },
      "properties": {
        "stateId": "saljuqiylar",
        "year": 1092,
        "zone": "ta'sir-doirasi",
        "confidence": "past",
        "sourceIds": [
          "golden-1992",
          "findley-2005",
          "peacock-2015"
        ],
        "notes": "Hijoz — faqat nomigagina, xutba o'qilgan. Halqa 2026-10-02 da qayta chizildi: nuqtalar tartiblandi, zichlashtirildi va quruqlik chizig'iga kesiladi; sahifa darajasida manbaga solishtirilmagan — ekspert tekshiruvi kerak.",
        "verified": false
      }
    },
    {
      "type": "Feature",
      "geometry": {
        "type": "Point",
        "coordinates": [
          51.67,
          32.65
        ]
      },
      "properties": {
        "stateId": "saljuqiylar",
        "year": 1092,
        "kind": "capital",
        "name": "Isfahon",
        "notes": "1092-yilda asosiy poytaxt"
      }
    },
    {
      "type": "Feature",
      "geometry": {
        "type": "Point",
        "coordinates": [
          58.8,
          36.2
        ]
      },
      "properties": {
        "stateId": "saljuqiylar",
        "year": 1092,
        "kind": "city",
        "name": "Nishopur",
        "notes": null
      }
    },
    {
      "type": "Feature",
      "geometry": {
        "type": "Point",
        "coordinates": [
          51.43,
          35.6
        ]
      },
      "properties": {
        "stateId": "saljuqiylar",
        "year": 1092,
        "kind": "city",
        "name": "Ray",
        "notes": null
      }
    },
    {
      "type": "Feature",
      "geometry": {
        "type": "Point",
        "coordinates": [
          61.84,
          37.66
        ]
      },
      "properties": {
        "stateId": "saljuqiylar",
        "year": 1092,
        "kind": "city",
        "name": "Marv",
        "notes": "Sulton Sanjar davrida poytaxt"
      }
    }
  ]
}